{
"type": "FeatureCollection",
"name": "Atractivo Turistico",
"crs": { "type": "name", "properties": { "name": "urn:ogc:def:crs:OGC:1.3:CRS84" } },
"features": [
{ "type": "Feature", "properties": { "NOMBRE_DEL": "Centro Cultural del Antiguo Círculo Militar", "CATEGORÍA": "Atractivo Cultural" }, "geometry": { "type": "Point", "coordinates": [ -78.510677599999951, -0.219136099999957 ] } },
{ "type": "Feature", "properties": { "NOMBRE_DEL": "Centro Cultural Govindas", "CATEGORÍA": "Atractivo Cultural" }, "geometry": { "type": "Point", "coordinates": [ -78.509350199999972, -0.217809399999965 ] } },
{ "type": "Feature", "properties": { "NOMBRE_DEL": "Centro Cultural Itchimbía", "CATEGORÍA": "Atractivo Cultural" }, "geometry": { "type": "Point", "coordinates": [ -78.501802599999962, -0.220083299999942 ] } },
{ "type": "Feature", "properties": { "NOMBRE_DEL": "Centro Cultural Metropolitano", "CATEGORÍA": "Atractivo Cultural" }, "geometry": { "type": "Point", "coordinates": [ -78.513242899999966, -0.220200199999965 ] } },
{ "type": "Feature", "properties": { "NOMBRE_DEL": "Casa Museo Carlota Jaramillo", "CATEGORÍA": "Atractivo Cultural" }, "geometry": { "type": "Point", "coordinates": [ -78.513315227999954, -0.001290580999978 ] } },
{ "type": "Feature", "properties": { "NOMBRE_DEL": "Centro de Arte Contemporáneo de Quito", "CATEGORÍA": "Atractivo Cultural" }, "geometry": { "type": "Point", "coordinates": [ -78.506934, -0.211358 ] } },
{ "type": "Feature", "properties": { "NOMBRE_DEL": "Museo Instituto de Estudios Históricos de La Policía Nacional", "CATEGORÍA": "Atractivo Cultural" }, "geometry": { "type": "Point", "coordinates": [ -78.514785699999948, -0.219605699999931 ] } },
{ "type": "Feature", "properties": { "NOMBRE_DEL": "Monumento Virgen de El Panecillo", "CATEGORÍA": "Atractivo Cultural" }, "geometry": { "type": "Point", "coordinates": [ -78.518652399999951, -0.228977899999961 ] } },
{ "type": "Feature", "properties": { "NOMBRE_DEL": "Museo Alberto Mena Caamaño", "CATEGORÍA": "Atractivo Cultural" }, "geometry": { "type": "Point", "coordinates": [ -78.513271, -0.219876 ] } },
{ "type": "Feature", "properties": { "NOMBRE_DEL": "Museo Archivo de Arquitectura", "CATEGORÍA": "Atractivo Cultural" }, "geometry": { "type": "Point", "coordinates": [ -78.509656, -0.223222 ] } },
{ "type": "Feature", "properties": { "NOMBRE_DEL": "Museo de Arte Colonial", "CATEGORÍA": "Atractivo Cultural" }, "geometry": { "type": "Point", "coordinates": [ -78.51305, -0.217647 ] } },
{ "type": "Feature", "properties": { "NOMBRE_DEL": "Museo de Arte Moderno de La Cultura", "CATEGORÍA": "Atractivo Cultural" }, "geometry": { "type": "Point", "coordinates": [ -78.494863, -0.210728 ] } },
{ "type": "Feature", "properties": { "NOMBRE_DEL": "Museo Camilo Egas", "CATEGORÍA": "Atractivo Cultural" }, "geometry": { "type": "Point", "coordinates": [ -78.509259, -0.217409 ] } },
{ "type": "Feature", "properties": { "NOMBRE_DEL": "Museo del Carmen Alto", "CATEGORÍA": "Atractivo Cultural" }, "geometry": { "type": "Point", "coordinates": [ -78.515163, -0.222743 ] } },
{ "type": "Feature", "properties": { "NOMBRE_DEL": "Museo de La Defensa Casa de Sucre", "CATEGORÍA": "Atractivo Cultural" }, "geometry": { "type": "Point", "coordinates": [ -78.51323, -0.221845 ] } },
{ "type": "Feature", "properties": { "NOMBRE_DEL": "Casa Museo Manuela Sáenz", "CATEGORÍA": "Atractivo Cultural" }, "geometry": { "type": "Point", "coordinates": [ -78.510497, -0.22281 ] } },
{ "type": "Feature", "properties": { "NOMBRE_DEL": "Museo de Instrumentos Musicales Pedro Pablo Traversari", "CATEGORÍA": "Atractivo Cultural" }, "geometry": { "type": "Point", "coordinates": [ -78.494863, -0.210728 ] } },
{ "type": "Feature", "properties": { "NOMBRE_DEL": "Museo de La Ciudad", "CATEGORÍA": "Atractivo Cultural" }, "geometry": { "type": "Point", "coordinates": [ -78.515018, -0.222818 ] } },
{ "type": "Feature", "properties": { "NOMBRE_DEL": "Museo Franciscano del Padre Almeida", "CATEGORÍA": "Atractivo Cultural" }, "geometry": { "type": "Point", "coordinates": [ -78.522479, -0.223856 ] } },
{ "type": "Feature", "properties": { "NOMBRE_DEL": "Museo del Pasillo", "CATEGORÍA": "Atractivo Cultural" }, "geometry": { "type": "Point", "coordinates": [ -78.514319499999942, -0.22203339999993 ] } },
{ "type": "Feature", "properties": { "NOMBRE_DEL": "Museo Fray Antonio Rodríguez", "CATEGORÍA": "Atractivo Cultural" }, "geometry": { "type": "Point", "coordinates": [ -78.475399, -0.200256 ] } },
{ "type": "Feature", "properties": { "NOMBRE_DEL": "Museo de Santo Domingo Fray Pedro Bedón", "CATEGORÍA": "Atractivo Cultural" }, "geometry": { "type": "Point", "coordinates": [ -78.512039, -0.223609 ] } },
{ "type": "Feature", "properties": { "NOMBRE_DEL": "Museo Fray Pedro Gocial \nSan Francisco", "CATEGORÍA": "Atractivo Cultural" }, "geometry": { "type": "Point", "coordinates": [ -78.515129, -0.219686 ] } },
{ "type": "Feature", "properties": { "NOMBRE_DEL": "Casa Museo María Augusta Urrutia", "CATEGORÍA": "Atractivo Cultural" }, "geometry": { "type": "Point", "coordinates": [ -78.513907, -0.221539 ] } },
{ "type": "Feature", "properties": { "NOMBRE_DEL": "Museo Miguel de Santiago Convento de San Agustín", "CATEGORÍA": "Atractivo Cultural" }, "geometry": { "type": "Point", "coordinates": [ -78.510419, -0.220323 ] } },
{ "type": "Feature", "properties": { "NOMBRE_DEL": "Museo Monacal de Santa Catalina de Siena", "CATEGORÍA": "Atractivo Cultural" }, "geometry": { "type": "Point", "coordinates": [ -78.510404, -0.221966 ] } },
{ "type": "Feature", "properties": { "NOMBRE_DEL": "Muñoz Mariño Museo y Galerías", "CATEGORÍA": "Atractivo Cultural" }, "geometry": { "type": "Point", "coordinates": [ -78.509289, -0.223483 ] } },
{ "type": "Feature", "properties": { "NOMBRE_DEL": "Pambiliño Bosque Escuela", "CATEGORÍA": "Atractivo Natural" }, "geometry": { "type": "Point", "coordinates": [ -78.909695877, 0.181886094000049 ] } },
{ "type": "Feature", "properties": { "NOMBRE_DEL": "Museo del Banco Central del Ecuador", "CATEGORÍA": "Atractivo Cultural" }, "geometry": { "type": "Point", "coordinates": [ -78.513862, -0.221164 ] } },
{ "type": "Feature", "properties": { "NOMBRE_DEL": "Museo  de La Universidad Central del Ecuador", "CATEGORÍA": "Atractivo Cultural" }, "geometry": { "type": "Point", "coordinates": [ -78.502267, -0.200965 ] } },
{ "type": "Feature", "properties": { "NOMBRE_DEL": "Yaku Parque Mueso del Agua", "CATEGORÍA": "Atractivo Cultural" }, "geometry": { "type": "Point", "coordinates": [ -78.518886, -0.21749 ] } },
{ "type": "Feature", "properties": { "NOMBRE_DEL": "Parque Urbano Cumandá", "CATEGORÍA": "Atractivo Cultural" }, "geometry": { "type": "Point", "coordinates": [ -78.511643399999969, -0.228300199999978 ] } },
{ "type": "Feature", "properties": { "NOMBRE_DEL": "Centro Cultural Pedro Vicente Maldonado - Planetario Instituto Geográfico Militar", "CATEGORÍA": "Atractivo Cultural" }, "geometry": { "type": "Point", "coordinates": [ -78.494599, -0.214210699999967 ] } },
{ "type": "Feature", "properties": { "NOMBRE_DEL": "Centro Cultural Mama Cuchara", "CATEGORÍA": "Atractivo Cultural" }, "geometry": { "type": "Point", "coordinates": [ -78.508812, -0.228764 ] } },
{ "type": "Feature", "properties": { "NOMBRE_DEL": "Casa Micelio", "CATEGORÍA": "Atractivo Cultural" }, "geometry": { "type": "Point", "coordinates": [ -78.497603, -0.213313 ] } },
{ "type": "Feature", "properties": { "NOMBRE_DEL": "Nina Shunku", "CATEGORÍA": "Atractivo Cultural" }, "geometry": { "type": "Point", "coordinates": [ -78.515539, -0.223377 ] } },
{ "type": "Feature", "properties": { "NOMBRE_DEL": "Teatro Bolívar", "CATEGORÍA": "Atractivo Cultural" }, "geometry": { "type": "Point", "coordinates": [ -78.511015, -0.221479 ] } },
{ "type": "Feature", "properties": { "NOMBRE_DEL": "Teatro Sucre", "CATEGORÍA": "Atractivo Cultural" }, "geometry": { "type": "Point", "coordinates": [ -78.508904, -0.219044 ] } },
{ "type": "Feature", "properties": { "NOMBRE_DEL": "Teatro Variedades", "CATEGORÍA": "Atractivo Cultural" }, "geometry": { "type": "Point", "coordinates": [ -78.508392, -0.219005 ] } },
{ "type": "Feature", "properties": { "NOMBRE_DEL": "Centro Cultural Fundación Telefónica", "CATEGORÍA": "Atractivo Cultural" }, "geometry": { "type": "Point", "coordinates": [ -78.461724699999934, -0.163094 ] } },
{ "type": "Feature", "properties": { "NOMBRE_DEL": "Alianza Francesa de Quito", "CATEGORÍA": "Atractivo Cultural" }, "geometry": { "type": "Point", "coordinates": [ -78.481168299999979, -0.188544699999966 ] } },
{ "type": "Feature", "properties": { "NOMBRE_DEL": "Asociación Humboldt", "CATEGORÍA": "Atractivo Cultural" }, "geometry": { "type": "Point", "coordinates": [ -78.490350699999965, -0.191937 ] } },
{ "type": "Feature", "properties": { "NOMBRE_DEL": "Biblioteca Nacional Aurelio Espinosa Pólit", "CATEGORÍA": "Atractivo Cultural" }, "geometry": { "type": "Point", "coordinates": [ -78.495379, -0.111119 ] } },
{ "type": "Feature", "properties": { "NOMBRE_DEL": "Fundación Mundo Juvenil", "CATEGORÍA": "Atractivo Cultural" }, "geometry": { "type": "Point", "coordinates": [ -78.483410799999945, -0.186279299999967 ] } },
{ "type": "Feature", "properties": { "NOMBRE_DEL": "INABIO - Instituto Nacional de Biodiversidad", "CATEGORÍA": "Atractivo Cultural" }, "geometry": { "type": "Point", "coordinates": [ -78.485585, -0.186125 ] } },
{ "type": "Feature", "properties": { "NOMBRE_DEL": "Jardín Botánico de Quito", "CATEGORÍA": "Atractivo Cultural" }, "geometry": { "type": "Point", "coordinates": [ -78.485339, -0.186091 ] } },
{ "type": "Feature", "properties": { "NOMBRE_DEL": "Museo Aeronáutico y del Espacio de La FAE", "CATEGORÍA": "Atractivo Cultural" }, "geometry": { "type": "Point", "coordinates": [ -78.493087, -0.135738 ] } },
{ "type": "Feature", "properties": { "NOMBRE_DEL": "Capilla del Hombre y Casa Museo Guayasamín", "CATEGORÍA": "Atractivo Cultural" }, "geometry": { "type": "Point", "coordinates": [ -78.469429, -0.190724 ] } },
{ "type": "Feature", "properties": { "NOMBRE_DEL": "Vivarium de Quito", "CATEGORÍA": "Atractivo Cultural" }, "geometry": { "type": "Point", "coordinates": [ -78.486833, -0.184905 ] } },
{ "type": "Feature", "properties": { "NOMBRE_DEL": "Museo Abya Yala", "CATEGORÍA": "Atractivo Cultural" }, "geometry": { "type": "Point", "coordinates": [ -78.489162, -0.207629 ] } },
{ "type": "Feature", "properties": { "NOMBRE_DEL": "Basílica del Voto Nacional", "CATEGORÍA": "Atractivo Cultural" }, "geometry": { "type": "Point", "coordinates": [ -78.507397, -0.2148 ] } },
{ "type": "Feature", "properties": { "NOMBRE_DEL": "Parque Arqueológico y Ecológico Rumipamba", "CATEGORÍA": "Atractivo Cultural" }, "geometry": { "type": "Point", "coordinates": [ -78.50174, -0.183449099999962 ] } },
{ "type": "Feature", "properties": { "NOMBRE_DEL": "Casa Museo Trude Sojka", "CATEGORÍA": "Atractivo Cultural" }, "geometry": { "type": "Point", "coordinates": [ -78.482803199999978, -0.205608099999949 ] } },
{ "type": "Feature", "properties": { "NOMBRE_DEL": "Centro Cultural Benjamín Carrión", "CATEGORÍA": "Atractivo Cultural" }, "geometry": { "type": "Point", "coordinates": [ -78.49796189999995, -0.205156 ] } },
{ "type": "Feature", "properties": { "NOMBRE_DEL": "Centro Cultural PUCE", "CATEGORÍA": "Atractivo Cultural" }, "geometry": { "type": "Point", "coordinates": [ -78.492398299999934, -0.209893299999976 ] } },
{ "type": "Feature", "properties": { "NOMBRE_DEL": "Galería de las Artes Kingman", "CATEGORÍA": "Atractivo Cultural" }, "geometry": { "type": "Point", "coordinates": [ -78.488837, -0.203319 ] } },
{ "type": "Feature", "properties": { "NOMBRE_DEL": "Complejo Arqueológico Tulipe", "CATEGORÍA": "Atractivo Cultural" }, "geometry": { "type": "Point", "coordinates": [ -78.736798099999987, 0.087280900000053 ] } },
{ "type": "Feature", "properties": { "NOMBRE_DEL": "Complejo Arqueológico Tulipe", "CATEGORÍA": "Atractivo Cultural" }, "geometry": { "type": "Point", "coordinates": [ -78.736798099999987, 0.087280900000053 ] } },
{ "type": "Feature", "properties": { "NOMBRE_DEL": "Museo de Historia Natural Gustavo Orcés V.", "CATEGORÍA": "Atractivo Cultural" }, "geometry": { "type": "Point", "coordinates": [ -78.490215, -0.211602 ] } },
{ "type": "Feature", "properties": { "NOMBRE_DEL": "El Útero", "CATEGORÍA": "Atractivo Cultural" }, "geometry": { "type": "Point", "coordinates": [ -78.488429, -0.198421 ] } },
{ "type": "Feature", "properties": { "NOMBRE_DEL": "Nudo Street Art Project", "CATEGORÍA": "Atractivo Cultural" }, "geometry": { "type": "Point", "coordinates": [ -78.482922, -0.208652 ] } },
{ "type": "Feature", "properties": { "NOMBRE_DEL": "Mindalae \nMuseo Etnohistórico De Artesanías Del Ecuador", "CATEGORÍA": "Atractivo Cultural" }, "geometry": { "type": "Point", "coordinates": [ -78.487575, -0.198969 ] } },
{ "type": "Feature", "properties": { "NOMBRE_DEL": "Museo Antonio Negrete", "CATEGORÍA": "Atractivo Cultural" }, "geometry": { "type": "Point", "coordinates": [ -78.453593699999942, -0.053998799999931 ] } },
{ "type": "Feature", "properties": { "NOMBRE_DEL": "Museo de Sitio Intiñan", "CATEGORÍA": "Atractivo Cultural" }, "geometry": { "type": "Point", "coordinates": [ -78.454535199999953, -0.000733499999967 ] } },
{ "type": "Feature", "properties": { "NOMBRE_DEL": "Ciudad Mitad del Mundo", "CATEGORÍA": "Atractivo Cultural" }, "geometry": { "type": "Point", "coordinates": [ -78.455675759999963, -0.001976833999947 ] } },
{ "type": "Feature", "properties": { "NOMBRE_DEL": "Iglesia El Belén", "CATEGORÍA": "Atractivo Cultural" }, "geometry": { "type": "Point", "coordinates": [ -78.501264014999947, -0.213263634999976 ] } },
{ "type": "Feature", "properties": { "NOMBRE_DEL": "Monumento a la Mitad del Mundo - Calacalí", "CATEGORÍA": "Atractivo Cultural" }, "geometry": { "type": "Point", "coordinates": [ -78.514118, -0.001576 ] } },
{ "type": "Feature", "properties": { "NOMBRE_DEL": "Cerro Catequilla en San Antonio de Pichincha", "CATEGORÍA": "Atractivo Cultural" }, "geometry": { "type": "Point", "coordinates": [ -78.46395339999998, -0.045729499999936 ] } },
{ "type": "Feature", "properties": { "NOMBRE_DEL": "Museo del Aguacate de Puellaro", "CATEGORÍA": "Atractivo Cultural" }, "geometry": { "type": "Point", "coordinates": [ -78.40241290299997, 0.065784533000055 ] } },
{ "type": "Feature", "properties": { "NOMBRE_DEL": "Mirador Cerro de la Luz", "CATEGORÍA": "Atractivo Natural" }, "geometry": { "type": "Point", "coordinates": [ -78.403053399999976, 0.05694 ] } },
{ "type": "Feature", "properties": { "NOMBRE_DEL": "Centro Cívico Cultural Mariscal Sucre", "CATEGORÍA": "Atractivo Cultural" }, "geometry": { "type": "Point", "coordinates": [ -78.55361419999997, -0.275955599999975 ] } },
{ "type": "Feature", "properties": { "NOMBRE_DEL": "Herbario Padre Luis Sodiro QPLS", "CATEGORÍA": "Atractivo Cultural" }, "geometry": { "type": "Point", "coordinates": [ -78.495379, -0.111119 ] } },
{ "type": "Feature", "properties": { "NOMBRE_DEL": "Puracá de Rumicucho", "CATEGORÍA": "Atractivo Cultural" }, "geometry": { "type": "Point", "coordinates": [ -78.43141959999997, 0.011215400000026 ] } },
{ "type": "Feature", "properties": { "NOMBRE_DEL": "Museo de Perucho", "CATEGORÍA": "Atractivo Cultural" }, "geometry": { "type": "Point", "coordinates": [ -78.42436713099994, 0.10919532600002 ] } },
{ "type": "Feature", "properties": { "NOMBRE_DEL": "Chucchurillos Ñaupa Ayllu Manta", "CATEGORÍA": "Atractivo Cultural" }, "geometry": { "type": "Point", "coordinates": [ -78.435455865999984, -0.08294479999995 ] } },
{ "type": "Feature", "properties": { "NOMBRE_DEL": "Genial Galería de Arte by Rosy Revelo", "CATEGORÍA": "Atractivo Cultural" }, "geometry": { "type": "Point", "coordinates": [ -78.481414299999983, -0.208192579999945 ] } },
{ "type": "Feature", "properties": { "NOMBRE_DEL": "Casa Agave Ecuador", "CATEGORÍA": "Atractivo Cultural" }, "geometry": { "type": "Point", "coordinates": [ -78.456091, -0.045469 ] } },
{ "type": "Feature", "properties": { "NOMBRE_DEL": "Museo de Ciencias Naturales del Instituto Nacional Mejia", "CATEGORÍA": "Atractivo Cultural" }, "geometry": { "type": "Point", "coordinates": [ -78.504835249999985, -0.212629761999949 ] } },
{ "type": "Feature", "properties": { "NOMBRE_DEL": "Teatro México", "CATEGORÍA": "Atractivo Cultural" }, "geometry": { "type": "Point", "coordinates": [ -78.51647643299998, -0.239932242999942 ] } },
{ "type": "Feature", "properties": { "NOMBRE_DEL": "Templo del Sol Mashpi", "CATEGORÍA": "Atractivo Cultural" }, "geometry": { "type": "Point", "coordinates": [ -78.856222230999947, 0.159344318000024 ] } },
{ "type": "Feature", "properties": { "NOMBRE_DEL": "Convento del Carmen Bajo", "CATEGORÍA": "Atractivo Cultural" }, "geometry": { "type": "Point", "coordinates": [ -78.510148655999956, -0.218488450999928 ] } },
{ "type": "Feature", "properties": { "NOMBRE_DEL": "Molinuco Refugio Ecológico Quito", "CATEGORÍA": "Atractivo Natural" }, "geometry": { "type": "Point", "coordinates": [ -78.425193456999978, -0.332818632999931 ] } },
{ "type": "Feature", "properties": { "NOMBRE_DEL": "Iglesia El Sagrario", "CATEGORÍA": "Atractivo Cultural" }, "geometry": { "type": "Point", "coordinates": [ -78.512748266999949, -0.220594525999957 ] } },
{ "type": "Feature", "properties": { "NOMBRE_DEL": "Iglesia El Tejar", "CATEGORÍA": "Atractivo Cultural" }, "geometry": { "type": "Point", "coordinates": [ -78.517522199999974, -0.213994099999979 ] } },
{ "type": "Feature", "properties": { "NOMBRE_DEL": "Iglesia Compañía de Jesús", "CATEGORÍA": "Atractivo Cultural" }, "geometry": { "type": "Point", "coordinates": [ -78.513658543999952, -0.220920580999973 ] } },
{ "type": "Feature", "properties": { "NOMBRE_DEL": "Iglesia Inmaculada Concepción", "CATEGORÍA": "Atractivo Cultural" }, "geometry": { "type": "Point", "coordinates": [ -78.512284079999972, -0.219450174999963 ] } },
{ "type": "Feature", "properties": { "NOMBRE_DEL": "Recoleta del Buen Pastor", "CATEGORÍA": "Atractivo Cultural" }, "geometry": { "type": "Point", "coordinates": [ -78.513260899999977, -0.23135259999998 ] } },
{ "type": "Feature", "properties": { "NOMBRE_DEL": "Iglesia de San Blas", "CATEGORÍA": "Atractivo Cultural" }, "geometry": { "type": "Point", "coordinates": [ -78.505066587999977, -0.218047334999937 ] } },
{ "type": "Feature", "properties": { "NOMBRE_DEL": "Iglesia de San Roque", "CATEGORÍA": "Atractivo Cultural" }, "geometry": { "type": "Point", "coordinates": [ -78.518406665999976, -0.220152448999954 ] } },
{ "type": "Feature", "properties": { "NOMBRE_DEL": "Iglesia de Santa Bárbara", "CATEGORÍA": "Atractivo Cultural" }, "geometry": { "type": "Point", "coordinates": [ -78.510160132999943, -0.217504969999936 ] } },
{ "type": "Feature", "properties": { "NOMBRE_DEL": "Catedral Metropolitana de Quito", "CATEGORÍA": "Atractivo Cultural" }, "geometry": { "type": "Point", "coordinates": [ -78.512573, -0.220456 ] } },
{ "type": "Feature", "properties": { "NOMBRE_DEL": "Iglesia de la Merced", "CATEGORÍA": "Atractivo Cultural" }, "geometry": { "type": "Point", "coordinates": [ -78.513746, -0.218276 ] } },
{ "type": "Feature", "properties": { "NOMBRE_DEL": "Iglesia de San Diego", "CATEGORÍA": "Atractivo Cultural" }, "geometry": { "type": "Point", "coordinates": [ -78.522449184999971, -0.223923071999934 ] } },
{ "type": "Feature", "properties": { "NOMBRE_DEL": "Convento de San Francisco", "CATEGORÍA": "Atractivo Cultural" }, "geometry": { "type": "Point", "coordinates": [ -78.515126, -0.220507 ] } },
{ "type": "Feature", "properties": { "NOMBRE_DEL": "Iglesia de San Marcos", "CATEGORÍA": "Atractivo Cultural" }, "geometry": { "type": "Point", "coordinates": [ -78.508230069999968, -0.224906817999965 ] } },
{ "type": "Feature", "properties": { "NOMBRE_DEL": "Iglesia de San Sebastián", "CATEGORÍA": "Atractivo Cultural" }, "geometry": { "type": "Point", "coordinates": [ -78.513468, -0.22866 ] } },
{ "type": "Feature", "properties": { "NOMBRE_DEL": "Iglesia de Santa Catalina de Siena", "CATEGORÍA": "Atractivo Cultural" }, "geometry": { "type": "Point", "coordinates": [ -78.510567, -0.221708 ] } },
{ "type": "Feature", "properties": { "NOMBRE_DEL": "Iglesia de Santa Clara", "CATEGORÍA": "Atractivo Cultural" }, "geometry": { "type": "Point", "coordinates": [ -78.516249, -0.22195 ] } },
{ "type": "Feature", "properties": { "NOMBRE_DEL": "Iglesia de Santo Domingo", "CATEGORÍA": "Atractivo Cultural" }, "geometry": { "type": "Point", "coordinates": [ -78.512481655999977, -0.223761061999937 ] } },
{ "type": "Feature", "properties": { "NOMBRE_DEL": "Iglesia de San Agustín", "CATEGORÍA": "Atractivo Cultural" }, "geometry": { "type": "Point", "coordinates": [ -78.510569499999974, -0.22035859999994 ] } },
{ "type": "Feature", "properties": { "NOMBRE_DEL": "Iglesia de Gúapulo", "CATEGORÍA": "Atractivo Cultural" }, "geometry": { "type": "Point", "coordinates": [ -78.475741619999951, -0.199953351999966 ] } },
{ "type": "Feature", "properties": { "NOMBRE_DEL": "Iglesia de Santa Teresita", "CATEGORÍA": "Atractivo Cultural" }, "geometry": { "type": "Point", "coordinates": [ -78.496294, -0.204603 ] } },
{ "type": "Feature", "properties": { "NOMBRE_DEL": "Iglesia de Puéllaro", "CATEGORÍA": "Atractivo Cultural" }, "geometry": { "type": "Point", "coordinates": [ -78.40288, 0.06529 ] } },
{ "type": "Feature", "properties": { "NOMBRE_DEL": "Santuario de Nuestra Señora del Quinche", "CATEGORÍA": "Atractivo Cultural" }, "geometry": { "type": "Point", "coordinates": [ -78.296345, -0.110942 ] } },
{ "type": "Feature", "properties": { "NOMBRE_DEL": "Andas de Puellaro", "CATEGORÍA": "Atractivo Cultural" }, "geometry": { "type": "Point", "coordinates": [ -78.40295, 0.065678 ] } },
{ "type": "Feature", "properties": { "NOMBRE_DEL": "Arrastre de Caudas", "CATEGORÍA": "Atractivo Cultural" }, "geometry": { "type": "Point", "coordinates": [ -78.512713799999972, -0.220492799999931 ] } },
{ "type": "Feature", "properties": { "NOMBRE_DEL": "Procesión de la Luz - Jacchigua", "CATEGORÍA": "Atractivo Cultural" }, "geometry": { "type": "Point", "coordinates": [ -78.507560799999965, -0.214870299999973 ] } },
{ "type": "Feature", "properties": { "NOMBRE_DEL": "Aya Marcay Killa\nCementerio de Calderón en Día de los Difuntos", "CATEGORÍA": "Atractivo Cultural" }, "geometry": { "type": "Point", "coordinates": [ -78.426684199999954, -0.105697299999974 ] } },
{ "type": "Feature", "properties": { "NOMBRE_DEL": "Procesión del Silencio", "CATEGORÍA": "Atractivo Cultural" }, "geometry": { "type": "Point", "coordinates": [ -78.512716199999943, -0.224161599999945 ] } },
{ "type": "Feature", "properties": { "NOMBRE_DEL": "Procesión Jesús del Gran Poder", "CATEGORÍA": "Atractivo Cultural" }, "geometry": { "type": "Point", "coordinates": [ -78.515457699999956, -0.220371299999954 ] } },
{ "type": "Feature", "properties": { "NOMBRE_DEL": "Bendición del fuego", "CATEGORÍA": "Atractivo Cultural" }, "geometry": { "type": "Point", "coordinates": [ -78.414737799999955, -0.308399399999928 ] } },
{ "type": "Feature", "properties": { "NOMBRE_DEL": "Procesión de los Diablos", "CATEGORÍA": "Atractivo Cultural" }, "geometry": { "type": "Point", "coordinates": [ -78.400493199999971, -0.292596099999969 ] } },
{ "type": "Feature", "properties": { "NOMBRE_DEL": "Reserva Cambugan", "CATEGORÍA": "Atractivo Natural" }, "geometry": { "type": "Point", "coordinates": [ -78.496361506999961, 0.206047175000037 ] } },
{ "type": "Feature", "properties": { "NOMBRE_DEL": "Ecoruta paseo del Quinde", "CATEGORÍA": "Atractivo Natural" }, "geometry": { "type": "Point", "coordinates": [ -78.750541, -0.10266009999998 ] } },
{ "type": "Feature", "properties": { "NOMBRE_DEL": "Reserva de Alambi", "CATEGORÍA": "Atractivo Natural" }, "geometry": { "type": "Point", "coordinates": [ -78.681288751999944, 0.030933919000063 ] } },
{ "type": "Feature", "properties": { "NOMBRE_DEL": "Bellavista Cloud Forest", "CATEGORÍA": "Atractivo Natural" }, "geometry": { "type": "Point", "coordinates": [ -78.680823713999985, -0.015762858999949 ] } },
{ "type": "Feature", "properties": { "NOMBRE_DEL": "Reserva Mashpi Amagusa", "CATEGORÍA": "Atractivo Natural" }, "geometry": { "type": "Point", "coordinates": [ -78.853134299999965, 0.160131679000074 ] } },
{ "type": "Feature", "properties": { "NOMBRE_DEL": "Reserva & Ecolodge Maquipucuna", "CATEGORÍA": "Atractivo Natural" }, "geometry": { "type": "Point", "coordinates": [ -78.629158287999985, 0.124310108000032 ] } },
{ "type": "Feature", "properties": { "NOMBRE_DEL": "Mashpi Lodge", "CATEGORÍA": "Atractivo Natural" }, "geometry": { "type": "Point", "coordinates": [ -78.878113438999947, 0.166565055000035 ] } },
{ "type": "Feature", "properties": { "NOMBRE_DEL": "Mashpi Shungo", "CATEGORÍA": "Atractivo Natural" }, "geometry": { "type": "Point", "coordinates": [ -78.912298, 0.182475 ] } },
{ "type": "Feature", "properties": { "NOMBRE_DEL": "Refugio Paz de Las Aves", "CATEGORÍA": "Atractivo Natural" }, "geometry": { "type": "Point", "coordinates": [ -78.706861, 0.019924 ] } },
{ "type": "Feature", "properties": { "NOMBRE_DEL": "Reserva Orquideologica El Pahuma", "CATEGORÍA": "Atractivo Natural" }, "geometry": { "type": "Point", "coordinates": [ -78.632501, 0.025797 ] } },
{ "type": "Feature", "properties": { "NOMBRE_DEL": "Tandayapa Bird Lodge", "CATEGORÍA": "Atractivo Natural" }, "geometry": { "type": "Point", "coordinates": [ -78.678516, 0.003036 ] } },
{ "type": "Feature", "properties": { "NOMBRE_DEL": "Reserva Yanacocha", "CATEGORÍA": "Atractivo Natural" }, "geometry": { "type": "Point", "coordinates": [ -78.583448198999974, -0.105051414999934 ] } },
{ "type": "Feature", "properties": { "NOMBRE_DEL": "Comunidad Yunguilla", "CATEGORÍA": "Atractivo Natural" }, "geometry": { "type": "Point", "coordinates": [ -78.551818437999941, 0.02039510000003 ] } },
{ "type": "Feature", "properties": { "NOMBRE_DEL": "Reserva Geobotánica Pululahua", "CATEGORÍA": "Atractivo Natural" }, "geometry": { "type": "Point", "coordinates": [ -78.483061, 0.025104 ] } },
{ "type": "Feature", "properties": { "NOMBRE_DEL": "Parque Nacional Antisana", "CATEGORÍA": "Atractivo Natural" }, "geometry": { "type": "Point", "coordinates": [ -78.156262873999935, -0.549777344999939 ] } },
{ "type": "Feature", "properties": { "NOMBRE_DEL": "Reserva Chakana- Hacienda Antisanilla", "CATEGORÍA": "Atractivo Natural" }, "geometry": { "type": "Point", "coordinates": [ -78.312445742999955, -0.444709085999932 ] } },
{ "type": "Feature", "properties": { "NOMBRE_DEL": "El Refugio de Vida Silvestre APH Ponce Paluguillo ", "CATEGORÍA": "Atractivo Natural" }, "geometry": { "type": "Point", "coordinates": [ -78.241424607999988, -0.291502346999948 ] } },
{ "type": "Feature", "properties": { "NOMBRE_DEL": "Mercado Central de Quito", "CATEGORÍA": "Atractivo Cultural" }, "geometry": { "type": "Point", "coordinates": [ -78.507061006999947, -0.219902779999927 ] } },
{ "type": "Feature", "properties": { "NOMBRE_DEL": "Mercado de San Francisco", "CATEGORÍA": "Atractivo Cultural" }, "geometry": { "type": "Point", "coordinates": [ -78.51875, -0.219914 ] } },
{ "type": "Feature", "properties": { "NOMBRE_DEL": "Mercado Iñaquito (Mercado La Carolina)", "CATEGORÍA": "Atractivo Cultural" }, "geometry": { "type": "Point", "coordinates": [ -78.486227, -0.171486 ] } },
{ "type": "Feature", "properties": { "NOMBRE_DEL": "Mercado la Floresta", "CATEGORÍA": "Atractivo Cultural" }, "geometry": { "type": "Point", "coordinates": [ -78.485396021999975, -0.206704574999947 ] } },
{ "type": "Feature", "properties": { "NOMBRE_DEL": "Mercado Santa Clara", "CATEGORÍA": "Atractivo Cultural" }, "geometry": { "type": "Point", "coordinates": [ -78.514473, -0.199749 ] } },
{ "type": "Feature", "properties": { "NOMBRE_DEL": "Parque Metropolitano Las Cuadras", "CATEGORÍA": "Atractivo Natural" }, "geometry": { "type": "Point", "coordinates": [ -78.547534612999982, -0.287651679999954 ] } },
{ "type": "Feature", "properties": { "NOMBRE_DEL": "Parque Metropolitano Chilibulo", "CATEGORÍA": "Atractivo Natural" }, "geometry": { "type": "Point", "coordinates": [ -78.558998028999952, -0.250939711999933 ] } },
{ "type": "Feature", "properties": { "NOMBRE_DEL": "Parque Metropolitano Guangüiltagua", "CATEGORÍA": "Atractivo Natural" }, "geometry": { "type": "Point", "coordinates": [ -78.464455079999937, -0.178740825999967 ] } },
{ "type": "Feature", "properties": { "NOMBRE_DEL": "Museo Antropológico Antonio Santiana", "CATEGORÍA": "Atractivo Cultural" }, "geometry": { "type": "Point", "coordinates": [ -78.502196, -0.198578 ] } },
{ "type": "Feature", "properties": { "NOMBRE_DEL": "Cascada del Río Pita", "CATEGORÍA": "Atractivo Natural" }, "geometry": { "type": "Point", "coordinates": [ -78.417441452999981, -0.432755232999966 ] } },
{ "type": "Feature", "properties": { "NOMBRE_DEL": "Jardín Alado", "CATEGORÍA": "Atractivo Cultural" }, "geometry": { "type": "Point", "coordinates": [ -78.431897043999982, -0.242117588999974 ] } },
{ "type": "Feature", "properties": { "NOMBRE_DEL": "Museo de Ciencias de la Tierra de La Universidad Central", "CATEGORÍA": "Atractivo Cultural" }, "geometry": { "type": "Point", "coordinates": [ -78.505511, -0.197906 ] } },
{ "type": "Feature", "properties": { "NOMBRE_DEL": "Hacienda Rumiloma", "CATEGORÍA": "Atractivo Cultural" }, "geometry": { "type": "Point", "coordinates": [ -78.523940041999936, -0.177209975999972 ] } },
{ "type": "Feature", "properties": { "NOMBRE_DEL": "Galería Cristobal Ortega Guayllabamba", "CATEGORÍA": "Atractivo Cultural" }, "geometry": { "type": "Point", "coordinates": [ -78.340397730999939, -0.060522135999975 ] } },
{ "type": "Feature", "properties": { "NOMBRE_DEL": "Museo de la Defensa Templo de La Patria", "CATEGORÍA": "Atractivo Cultural" }, "geometry": { "type": "Point", "coordinates": [ -78.527499, -0.218861 ] } },
{ "type": "Feature", "properties": { "NOMBRE_DEL": "Museo de Sitio La Florida", "CATEGORÍA": "Atractivo Cultural" }, "geometry": { "type": "Point", "coordinates": [ -78.507332799999972, -0.146965699999953 ] } },
{ "type": "Feature", "properties": { "NOMBRE_DEL": "Museo del Observatorio Astronómico de Quito", "CATEGORÍA": "Atractivo Cultural" }, "geometry": { "type": "Point", "coordinates": [ -78.502533, -0.214864 ] } },
{ "type": "Feature", "properties": { "NOMBRE_DEL": "Museo Interactivo de Ciencia MIC", "CATEGORÍA": "Atractivo Cultural" }, "geometry": { "type": "Point", "coordinates": [ -78.516032, -0.236334 ] } },
{ "type": "Feature", "properties": { "NOMBRE_DEL": "Plaza Grande", "CATEGORÍA": "Atractivo Cultural" }, "geometry": { "type": "Point", "coordinates": [ -78.512083852999979, -0.219922291999978 ] } },
{ "type": "Feature", "properties": { "NOMBRE_DEL": "Plaza de San Francisco", "CATEGORÍA": "Atractivo Cultural" }, "geometry": { "type": "Point", "coordinates": [ -78.514969909999934, -0.22089860799997 ] } },
{ "type": "Feature", "properties": { "NOMBRE_DEL": "Plaza de Santo Domingo", "CATEGORÍA": "Atractivo Cultural" }, "geometry": { "type": "Point", "coordinates": [ -78.512861692999934, -0.223559339999952 ] } },
{ "type": "Feature", "properties": { "NOMBRE_DEL": "Plaza de Santa Clara", "CATEGORÍA": "Atractivo Cultural" }, "geometry": { "type": "Point", "coordinates": [ -78.515880519999939, -0.221968801999935 ] } },
{ "type": "Feature", "properties": { "NOMBRE_DEL": "Bulevar 24 de Mayo", "CATEGORÍA": "Atractivo Cultural" }, "geometry": { "type": "Point", "coordinates": [ -78.515446568999948, -0.223910848999935 ] } },
{ "type": "Feature", "properties": { "NOMBRE_DEL": "Reserva del Bosque Nublado de Santa Lucia", "CATEGORÍA": "Atractivo Natural" }, "geometry": { "type": "Point", "coordinates": [ -78.61282665899995, 0.139282327000046 ] } },
{ "type": "Feature", "properties": { "NOMBRE_DEL": "Museo Nacional de Medicina Eduardo Estrella", "CATEGORÍA": "Atractivo Cultural" }, "geometry": { "type": "Point", "coordinates": [ -78.499292, -0.216047 ] } },
{ "type": "Feature", "properties": { "NOMBRE_DEL": "Museo Nacional del Ecuador (MUNA)", "CATEGORÍA": "Atractivo Cultural" }, "geometry": { "type": "Point", "coordinates": [ -78.494863, -0.210728 ] } },
{ "type": "Feature", "properties": { "NOMBRE_DEL": "Comuna San Pedro de El Tingo", "CATEGORÍA": "Atractivo Natural" }, "geometry": { "type": "Point", "coordinates": [ -78.441077968999934, -0.285370083999965 ] } },
{ "type": "Feature", "properties": { "NOMBRE_DEL": "Balneario de El Tingo", "CATEGORÍA": "Atractivo Natural" }, "geometry": { "type": "Point", "coordinates": [ -78.439379261999989, -0.286606818999928 ] } },
{ "type": "Feature", "properties": { "NOMBRE_DEL": "Volcan Ilaló", "CATEGORÍA": "Atractivo Natural" }, "geometry": { "type": "Point", "coordinates": [ -78.419680903999961, -0.254830409999954 ] } },
{ "type": "Feature", "properties": { "NOMBRE_DEL": "Parque Ecológico  Angamarca", "CATEGORÍA": "Atractivo Natural" }, "geometry": { "type": "Point", "coordinates": [ -78.416344647999949, -0.288151225999968 ] } },
{ "type": "Feature", "properties": { "NOMBRE_DEL": "Refugio de Vida Silvestre Pasochoa", "CATEGORÍA": "Atractivo Natural" }, "geometry": { "type": "Point", "coordinates": [ -78.520097044999943, -0.422110528999951 ] } },
{ "type": "Feature", "properties": { "NOMBRE_DEL": "Carnaval de Amaguaña", "CATEGORÍA": "Atractivo Cultural" }, "geometry": { "type": "Point", "coordinates": [ -78.499826958999961, -0.38849885299993 ] } },
{ "type": "Feature", "properties": { "NOMBRE_DEL": "Iglesia de Amaguaña", "CATEGORÍA": "Atractivo Cultural" }, "geometry": { "type": "Point", "coordinates": [ -78.506237361, -0.374347860999933 ] } },
{ "type": "Feature", "properties": { "NOMBRE_DEL": "Camposanto de Atahualpa", "CATEGORÍA": "Atractivo Cultural" }, "geometry": { "type": "Point", "coordinates": [ -78.370851621999975, 0.145800360000067 ] } },
{ "type": "Feature", "properties": { "NOMBRE_DEL": "Iglesia Inmaculada Concepción en Atahualpa Habaspamba", "CATEGORÍA": "Atractivo Cultural" }, "geometry": { "type": "Point", "coordinates": [ -78.378693270999975, 0.204676616000029 ] } },
{ "type": "Feature", "properties": { "NOMBRE_DEL": "Cascadas de Atahualpa", "CATEGORÍA": "Atractivo Natural" }, "geometry": { "type": "Point", "coordinates": [ -78.350297637999972, 0.142000676000066 ] } },
{ "type": "Feature", "properties": { "NOMBRE_DEL": "Reserva Mashpi Pintor Ortega Maila", "CATEGORÍA": "Atractivo Natural" }, "geometry": { "type": "Point", "coordinates": [ -78.855540949999977, 0.15935504700002 ] } },
{ "type": "Feature", "properties": { "NOMBRE_DEL": "Figuras Masapán", "CATEGORÍA": "Atractivo Cultural" }, "geometry": { "type": "Point", "coordinates": [ -78.423310206999986, -0.102070350999952 ] } },
{ "type": "Feature", "properties": { "NOMBRE_DEL": "Bordados de Llano Grande", "CATEGORÍA": "Atractivo Cultural" }, "geometry": { "type": "Point", "coordinates": [ -78.432068862999984, -0.079417047999925 ] } },
{ "type": "Feature", "properties": { "NOMBRE_DEL": "Parque Metropolitano de la Armenia", "CATEGORÍA": "Atractivo Natural" }, "geometry": { "type": "Point", "coordinates": [ -78.463780256999939, -0.269157138999958 ] } },
{ "type": "Feature", "properties": { "NOMBRE_DEL": "Museo Templo del Sol Pintor Cristobal Orteaga", "CATEGORÍA": "Atractivo Cultural" }, "geometry": { "type": "Point", "coordinates": [ -78.481160399999965, 0.02325680000007 ] } },
{ "type": "Feature", "properties": { "NOMBRE_DEL": "Balneario La Moya", "CATEGORÍA": "Atractivo Natural" }, "geometry": { "type": "Point", "coordinates": [ -78.47293217899994, -0.301395925999941 ] } },
{ "type": "Feature", "properties": { "NOMBRE_DEL": "Parque Recreacional La Moya", "CATEGORÍA": "Atractivo Natural" }, "geometry": { "type": "Point", "coordinates": [ -78.47293217899994, -0.301395925999941 ] } },
{ "type": "Feature", "properties": { "NOMBRE_DEL": "Iglesia San Pedro  de Cumbayá", "CATEGORÍA": "Atractivo Cultural" }, "geometry": { "type": "Point", "coordinates": [ -78.428721076999977, -0.201392325999961 ] } },
{ "type": "Feature", "properties": { "NOMBRE_DEL": "Museo La Miscelánea de Cumbayá", "CATEGORÍA": "Atractivo Cultural" }, "geometry": { "type": "Point", "coordinates": [ -78.432534462999968, -0.200703195999949 ] } },
{ "type": "Feature", "properties": { "NOMBRE_DEL": "Iglesia parroquial de Chavezpamba", "CATEGORÍA": "Atractivo Cultural" }, "geometry": { "type": "Point", "coordinates": [ -78.399818478999975, 0.144478548000052 ] } },
{ "type": "Feature", "properties": { "NOMBRE_DEL": "Parque Central de Chavezpamba", "CATEGORÍA": "Atractivo Cultural" }, "geometry": { "type": "Point", "coordinates": [ -78.403868332999934, 0.124399013000073 ] } },
{ "type": "Feature", "properties": { "NOMBRE_DEL": "Parque Ecológico Los Algarrobos", "CATEGORÍA": "Atractivo Natural" }, "geometry": { "type": "Point", "coordinates": [ -78.420082942999954, -0.206883626999968 ] } },
{ "type": "Feature", "properties": { "NOMBRE_DEL": "Tierra de Tayos Hacienda Turística", "CATEGORÍA": "Atractivo Natural" }, "geometry": { "type": "Point", "coordinates": [ -78.738417874999982, 0.223395261000064 ] } },
{ "type": "Feature", "properties": { "NOMBRE_DEL": "Iglesia Santísima Trinidad de Guangopolo y Parque Central", "CATEGORÍA": "Atractivo Cultural" }, "geometry": { "type": "Point", "coordinates": [ -78.451758206999955, -0.25823369799997 ] } },
{ "type": "Feature", "properties": { "NOMBRE_DEL": "Iglesia Católica Nuestra Señora del Rosario y Parque Central", "CATEGORÍA": "Atractivo Cultural" }, "geometry": { "type": "Point", "coordinates": [ -78.411546932999954, -0.118025496999962 ] } },
{ "type": "Feature", "properties": { "NOMBRE_DEL": "Volcán Guagua Pichincha", "CATEGORÍA": "Atractivo Natural" }, "geometry": { "type": "Point", "coordinates": [ -78.61233507299994, -0.168772661999981 ] } },
{ "type": "Feature", "properties": { "NOMBRE_DEL": "Romería a la Virgen del Volcán", "CATEGORÍA": "Atractivo Cultural" }, "geometry": { "type": "Point", "coordinates": [ -78.571422587999962, -0.245766040999968 ] } },
{ "type": "Feature", "properties": { "NOMBRE_DEL": "Santuario de la Virgen del Cinto", "CATEGORÍA": "Atractivo Cultural" }, "geometry": { "type": "Point", "coordinates": [ -78.569932503999951, -0.24593518599994 ] } },
{ "type": "Feature", "properties": { "NOMBRE_DEL": "Procesión de los Diablos/Semana Santa", "CATEGORÍA": "Atractivo Cultural" }, "geometry": { "type": "Point", "coordinates": [ -78.397938611999962, -0.290640937999967 ] } },
{ "type": "Feature", "properties": { "NOMBRE_DEL": "Balneario Termas de La Merced", "CATEGORÍA": "Atractivo Natural" }, "geometry": { "type": "Point", "coordinates": [ -78.396082052999986, -0.290906700999926 ] } },
{ "type": "Feature", "properties": { "NOMBRE_DEL": "Comuna San Francisco de Baños", "CATEGORÍA": "Atractivo Natural" }, "geometry": { "type": "Point", "coordinates": [ -78.410013548999984, -0.296193339999945 ] } },
{ "type": "Feature", "properties": { "NOMBRE_DEL": "Cascada de la Piragua", "CATEGORÍA": "Atractivo Natural" }, "geometry": { "type": "Point", "coordinates": [ -78.68384335099995, 0.140241520000075 ] } },
{ "type": "Feature", "properties": { "NOMBRE_DEL": "Reserva Intillacta Tucanopy", "CATEGORÍA": "Atractivo Natural" }, "geometry": { "type": "Point", "coordinates": [ -78.717959724999957, 0.049716656000044 ] } },
{ "type": "Feature", "properties": { "NOMBRE_DEL": "Culunco de la Armenia", "CATEGORÍA": "Atractivo Cultural" }, "geometry": { "type": "Point", "coordinates": [ -78.564953741999943, 0.062592255000027 ] } },
{ "type": "Feature", "properties": { "NOMBRE_DEL": "Iglesia Parroquial Santa Ana de Nayón", "CATEGORÍA": "Atractivo Cultural" }, "geometry": { "type": "Point", "coordinates": [ -78.439067946999955, -0.156296108999925 ] } },
{ "type": "Feature", "properties": { "NOMBRE_DEL": "Viveros Nayón", "CATEGORÍA": "Atractivo Cultural" }, "geometry": { "type": "Point", "coordinates": [ -78.45438891799995, -0.160466887999974 ] } },
{ "type": "Feature", "properties": { "NOMBRE_DEL": "Reserva del Bosque Protector Verdecocha", "CATEGORÍA": "Atractivo Natural" }, "geometry": { "type": "Point", "coordinates": [ -78.606623206999984, -0.096787836999965 ] } },
{ "type": "Feature", "properties": { "NOMBRE_DEL": "Cascada Gallo de la Peña", "CATEGORÍA": "Atractivo Natural" }, "geometry": { "type": "Point", "coordinates": [ -78.77345631299994, 0.140283282000041 ] } },
{ "type": "Feature", "properties": { "NOMBRE_DEL": "Iglesia y Parque Central de Perucho", "CATEGORÍA": "Atractivo Cultural" }, "geometry": { "type": "Point", "coordinates": [ -78.423908470999947, 0.109011611000028 ] } },
{ "type": "Feature", "properties": { "NOMBRE_DEL": "Parque Nacional Cayambe Coca", "CATEGORÍA": "Atractivo Natural" }, "geometry": { "type": "Point", "coordinates": [ -77.836747744999968, -0.072496688999934 ] } },
{ "type": "Feature", "properties": { "NOMBRE_DEL": "Parque Central e Iglesia de San Sebastián de Pifo", "CATEGORÍA": "Atractivo Cultural" }, "geometry": { "type": "Point", "coordinates": [ -78.33878849499996, -0.225812597999948 ] } },
{ "type": "Feature", "properties": { "NOMBRE_DEL": "Laguna de Tipo Pugro", "CATEGORÍA": "Atractivo Natural" }, "geometry": { "type": "Point", "coordinates": [ -78.336883773999944, -0.447746119999977 ] } },
{ "type": "Feature", "properties": { "NOMBRE_DEL": "Laguna de Secas", "CATEGORÍA": "Atractivo Natural" }, "geometry": { "type": "Point", "coordinates": [ -78.328362074999973, -0.447892554999953 ] } },
{ "type": "Feature", "properties": { "NOMBRE_DEL": "Laguna de la Mica", "CATEGORÍA": "Atractivo Natural" }, "geometry": { "type": "Point", "coordinates": [ -78.210318732999951, -0.541592851999951 ] } },
{ "type": "Feature", "properties": { "NOMBRE_DEL": "Volcán Antisana", "CATEGORÍA": "Atractivo Natural" }, "geometry": { "type": "Point", "coordinates": [ -78.141722614999935, -0.483909890999939 ] } },
{ "type": "Feature", "properties": { "NOMBRE_DEL": "Parque Metropolitano Equinoccial", "CATEGORÍA": "Atractivo Cultural" }, "geometry": { "type": "Point", "coordinates": [ -78.44682290999998, -0.041188599999941 ] } },
{ "type": "Feature", "properties": { "NOMBRE_DEL": "Capilla del Señor del Árbol", "CATEGORÍA": "Atractivo Cultural" }, "geometry": { "type": "Point", "coordinates": [ -78.45510182299995, -0.054950047999967 ] } },
{ "type": "Feature", "properties": { "NOMBRE_DEL": "Pomasquinde", "CATEGORÍA": "Atractivo Cultural" }, "geometry": { "type": "Point", "coordinates": [ -78.457365200999959, -0.05591093399994 ] } },
{ "type": "Feature", "properties": { "NOMBRE_DEL": "Iglesia Santiago Apóstol y Parque Central", "CATEGORÍA": "Atractivo Cultural" }, "geometry": { "type": "Point", "coordinates": [ -78.358511717999988, -0.176820444999976 ] } },
{ "type": "Feature", "properties": { "NOMBRE_DEL": "Iglesia de San José de Minas y Parque Central", "CATEGORÍA": "Atractivo Cultural" }, "geometry": { "type": "Point", "coordinates": [ -78.410712425999975, 0.17148068900002 ] } },
{ "type": "Feature", "properties": { "NOMBRE_DEL": "Parque Central y Iglesia La Inmaculada Concepción", "CATEGORÍA": "Atractivo Cultural" }, "geometry": { "type": "Point", "coordinates": [ -78.345426563999979, -0.185359109999979 ] } },
{ "type": "Feature", "properties": { "NOMBRE_DEL": "Parque Metropolitano del Sur", "CATEGORÍA": "Atractivo Cultural" }, "geometry": { "type": "Point", "coordinates": [ -78.521054704999983, -0.341289290999953 ] } },
{ "type": "Feature", "properties": { "NOMBRE_DEL": "Cerro Cotohurco", "CATEGORÍA": "Atractivo Natural" }, "geometry": { "type": "Point", "coordinates": [ -78.285685193999939, -0.210404364999931 ] } },
{ "type": "Feature", "properties": { "NOMBRE_DEL": "Centro Ecocultural Ñukanchik Yuyak", "CATEGORÍA": "Atractivo Cultural" }, "geometry": { "type": "Point", "coordinates": [ -78.329199710999944, -0.166190154999924 ] } },
{ "type": "Feature", "properties": { "NOMBRE_DEL": "Santuario de San Miguel Arcángel y Parque Central", "CATEGORÍA": "Atractivo Cultural" }, "geometry": { "type": "Point", "coordinates": [ -78.440647661999947, -0.148667024999952 ] } },
{ "type": "Feature", "properties": { "NOMBRE_DEL": "Museo Casa del Alabado", "CATEGORÍA": "Atractivo Cultural" }, "geometry": { "type": "Point", "coordinates": [ -78.515879038999969, -0.221355162999942 ] } },
{ "type": "Feature", "properties": { "NOMBRE_DEL": "Ruta Ecológica El Chaquiñán de Cumbaya", "CATEGORÍA": "Atractivo Natural" }, "geometry": { "type": "Point", "coordinates": [ -78.431708022999942, -0.199564467999949 ] } },
{ "type": "Feature", "properties": { "NOMBRE_DEL": "Mercado Artesanal", "CATEGORÍA": "Atractivo Cultural" }, "geometry": { "type": "Point", "coordinates": [ -78.495138832999942, -0.206880945999956 ] } },
{ "type": "Feature", "properties": { "NOMBRE_DEL": "Arco de la Circasiana", "CATEGORÍA": "Atractivo Cultural" }, "geometry": { "type": "Point", "coordinates": [ -78.497299035999959, -0.208027939999965 ] } },
{ "type": "Feature", "properties": { "NOMBRE_DEL": "Palacio de la Circasiana", "CATEGORÍA": "Atractivo Cultural" }, "geometry": { "type": "Point", "coordinates": [ -78.496928231999959, -0.197920974999931 ] } },
{ "type": "Feature", "properties": { "NOMBRE_DEL": "Ruta Ecológica El Chaquiñán de Cumbaya", "CATEGORÍA": "Atractivo Cultural" }, "geometry": { "type": "Point", "coordinates": [ -78.393220824999958, -0.189797563999946 ] } },
{ "type": "Feature", "properties": { "NOMBRE_DEL": "Teleférico Quito", "CATEGORÍA": "Atractivo Cultural" }, "geometry": { "type": "Point", "coordinates": [ -78.519528837999985, -0.192129679999937 ] } },
{ "type": "Feature", "properties": { "NOMBRE_DEL": "Kitu Samay Wasi", "CATEGORÍA": "Atractivo Cultural" }, "geometry": { "type": "Point", "coordinates": [ -78.424934717999975, -0.124078745999952 ] } },
{ "type": "Feature", "properties": { "NOMBRE_DEL": "Zoológico de Quito", "CATEGORÍA": "Atractivo Cultural" }, "geometry": { "type": "Point", "coordinates": [ -78.35858828399995, -0.070960884999977 ] } },
{ "type": "Feature", "properties": { "NOMBRE_DEL": "Parque Central de Tababela", "CATEGORÍA": "Atractivo Cultural" }, "geometry": { "type": "Point", "coordinates": [ -78.345507034999969, -0.185193788999925 ] } },
{ "type": "Feature", "properties": { "NOMBRE_DEL": "Volcán Rucu Pichincha", "CATEGORÍA": "Atractivo Natural" }, "geometry": { "type": "Point", "coordinates": [ -78.566901, -0.162743 ] } },
{ "type": "Feature", "properties": { "NOMBRE_DEL": "Mercado de Alangasi", "CATEGORÍA": "Atractivo Cultural" }, "geometry": { "type": "Point", "coordinates": [ -78.416199151999933, -0.307598067999947 ] } }
]
}
