{
"type": "FeatureCollection",
"name": "Espacios_Culturales_Encuesta_230",
"crs": { "type": "name", "properties": { "name": "urn:ogc:def:crs:OGC:1.3:CRS84" } },
"features": [
{ "type": "Feature", "properties": { "Name": "Museo Nacional del Ecuador", "Tipos": "Museos y sitios de memoria social" }, "geometry": { "type": "Point", "coordinates": [ -78.4951, -0.2096 ] } },
{ "type": "Feature", "properties": { "Name": "Museo de la Ciudad", "Tipos": "Museos y sitios de memoria social" }, "geometry": { "type": "Point", "coordinates": [ -78.515, -0.2228 ] } },
{ "type": "Feature", "properties": { "Name": "Centro de Arte Contemporáneo", "Tipos": "Museos y sitios de memoria social" }, "geometry": { "type": "Point", "coordinates": [ -78.5069, -0.2114 ] } },
{ "type": "Feature", "properties": { "Name": "Capilla del Hombre", "Tipos": "Museos y sitios de memoria social" }, "geometry": { "type": "Point", "coordinates": [ -78.4695, -0.1904 ] } },
{ "type": "Feature", "properties": { "Name": "Yaku Museo del Agua", "Tipos": "Museos y sitios de memoria social" }, "geometry": { "type": "Point", "coordinates": [ -78.5202, -0.2181 ] } },
{ "type": "Feature", "properties": { "Name": "Museo Interactivo de Ciencia", "Tipos": "Museos y sitios de memoria social" }, "geometry": { "type": "Point", "coordinates": [ -78.5157, -0.2361 ] } },
{ "type": "Feature", "properties": { "Name": "Jardín Botánico de Quito", "Tipos": "Museos y sitios de memoria social" }, "geometry": { "type": "Point", "coordinates": [ -78.4855, -0.1864 ] } },
{ "type": "Feature", "properties": { "Name": "Museo de Arte Precolombino Casa del Alabado", "Tipos": "Museos y sitios de memoria social" }, "geometry": { "type": "Point", "coordinates": [ -78.5158, -0.2215 ] } },
{ "type": "Feature", "properties": { "Name": "Museo de Arte Colonial", "Tipos": "Museos y sitios de memoria social" }, "geometry": { "type": "Point", "coordinates": [ -78.5131, -0.2178 ] } },
{ "type": "Feature", "properties": { "Name": "Museo de Arte Moderno", "Tipos": "Museos y sitios de memoria social" }, "geometry": { "type": "Point", "coordinates": [ -78.4949, -0.2107 ] } },
{ "type": "Feature", "properties": { "Name": "Museo Alberto Mena Caamaño", "Tipos": "Museos y sitios de memoria social" }, "geometry": { "type": "Point", "coordinates": [ -78.5133, -0.2199 ] } },
{ "type": "Feature", "properties": { "Name": "Museo del Observatorio Astronómico de Quito", "Tipos": "Museos y sitios de memoria social" }, "geometry": { "type": "Point", "coordinates": [ -78.5025, -0.2149 ] } },
{ "type": "Feature", "properties": { "Name": "Museo Etnohistórico de Artesanías del Ecuador Mindalae", "Tipos": "Museos y sitios de memoria social" }, "geometry": { "type": "Point", "coordinates": [ -78.4876, -0.199 ] } },
{ "type": "Feature", "properties": { "Name": "Museo de la Universidad Central del Ecuador MUCE", "Tipos": "Museos y sitios de memoria social" }, "geometry": { "type": "Point", "coordinates": [ -78.5023, -0.201 ] } },
{ "type": "Feature", "properties": { "Name": "Parque Arqueológico y Ecológico Rumipamba", "Tipos": "Museos y sitios de memoria social" }, "geometry": { "type": "Point", "coordinates": [ -78.501, -0.1817 ] } },
{ "type": "Feature", "properties": { "Name": "Museo Camilo Egas", "Tipos": "Museos y sitios de memoria social" }, "geometry": { "type": "Point", "coordinates": [ -78.5092, -0.2175 ] } },
{ "type": "Feature", "properties": { "Name": "Casa Museo Trude Sojka", "Tipos": "Museos y sitios de memoria social" }, "geometry": { "type": "Point", "coordinates": [ -78.4829, -0.2054 ] } },
{ "type": "Feature", "properties": { "Name": "Museo del Pasillo", "Tipos": "Museos y sitios de memoria social" }, "geometry": { "type": "Point", "coordinates": [ -78.5142, -0.2219 ] } },
{ "type": "Feature", "properties": { "Name": "Museo de Sitio La Florida", "Tipos": "Museos y sitios de memoria social" }, "geometry": { "type": "Point", "coordinates": [ -78.5066, -0.1482 ] } },
{ "type": "Feature", "properties": { "Name": "Museo de la Presidencia", "Tipos": "Museos y sitios de memoria social" }, "geometry": { "type": "Point", "coordinates": [ -78.5128, -0.22 ] } },
{ "type": "Feature", "properties": { "Name": "Museo Fray Antonio Rodríguez", "Tipos": "Museos y sitios de memoria social" }, "geometry": { "type": "Point", "coordinates": [ -78.4752, -0.2002 ] } },
{ "type": "Feature", "properties": { "Name": "Museo Casa de Benalcázar", "Tipos": "Museos y sitios de memoria social" }, "geometry": { "type": "Point", "coordinates": [ -78.5116, -0.2177 ] } },
{ "type": "Feature", "properties": { "Name": "Centro Quinatoa", "Tipos": "Museos y sitios de memoria social" }, "geometry": { "type": "Point", "coordinates": [ -78.5095, -0.2267 ] } },
{ "type": "Feature", "properties": { "Name": "Museo Inehpol", "Tipos": "Museos y sitios de memoria social" }, "geometry": { "type": "Point", "coordinates": [ -78.5147, -0.2194 ] } },
{ "type": "Feature", "properties": { "Name": "Museo Numismático BCE", "Tipos": "Museos y sitios de memoria social" }, "geometry": { "type": "Point", "coordinates": [ -78.5139, -0.2212 ] } },
{ "type": "Feature", "properties": { "Name": "Museo Antiguo Círculo Militar", "Tipos": "Museos y sitios de memoria social" }, "geometry": { "type": "Point", "coordinates": [ -78.5106, -0.2191 ] } },
{ "type": "Feature", "properties": { "Name": "Museo Iglesia Catedral Primada de Quito", "Tipos": "Museos y sitios de memoria social" }, "geometry": { "type": "Point", "coordinates": [ -78.5126, -0.2205 ] } },
{ "type": "Feature", "properties": { "Name": "Casa Museo María Augusta Urrutia", "Tipos": "Museos y sitios de memoria social" }, "geometry": { "type": "Point", "coordinates": [ -78.5139, -0.2215 ] } },
{ "type": "Feature", "properties": { "Name": "Casa Museo Manuela Sáenz", "Tipos": "Museos y sitios de memoria social" }, "geometry": { "type": "Point", "coordinates": [ -78.5105, -0.2228 ] } },
{ "type": "Feature", "properties": { "Name": "Museo del Tren", "Tipos": "Museos y sitios de memoria social" }, "geometry": { "type": "Point", "coordinates": [ -78.5155, -0.2388 ] } },
{ "type": "Feature", "properties": { "Name": "Museo Expenal García Moreno", "Tipos": "Museos y sitios de memoria social" }, "geometry": { "type": "Point", "coordinates": [ -78.5209, -0.2177 ] } },
{ "type": "Feature", "properties": { "Name": "Casa de la Cultura Ecuatoriana", "Tipos": "Espacio Multidisciplinario" }, "geometry": { "type": "Point", "coordinates": [ -78.4952, -0.2102 ] } },
{ "type": "Feature", "properties": { "Name": "Centro Cultural Metropolitano", "Tipos": "Espacio Multidisciplinario" }, "geometry": { "type": "Point", "coordinates": [ -78.5133, -0.2204 ] } },
{ "type": "Feature", "properties": { "Name": "Centro Cultural Itchimbía", "Tipos": "Espacio Multidisciplinario" }, "geometry": { "type": "Point", "coordinates": [ -78.5018, -0.22 ] } },
{ "type": "Feature", "properties": { "Name": "Centro Cultural PUCE", "Tipos": "Espacio Multidisciplinario" }, "geometry": { "type": "Point", "coordinates": [ -78.4923, -0.2099 ] } },
{ "type": "Feature", "properties": { "Name": "Alianza Francesa de Quito", "Tipos": "Espacio Multidisciplinario" }, "geometry": { "type": "Point", "coordinates": [ -78.4813, -0.1883 ] } },
{ "type": "Feature", "properties": { "Name": "Centro Cultural Benjamín Carrión", "Tipos": "Espacio Multidisciplinario" }, "geometry": { "type": "Point", "coordinates": [ -78.4978, -0.2052 ] } },
{ "type": "Feature", "properties": { "Name": "Centro Cultural Comité del Pueblo", "Tipos": "Espacio Multidisciplinario" }, "geometry": { "type": "Point", "coordinates": [ -78.464, -0.1219 ] } },
{ "type": "Feature", "properties": { "Name": "Centro Cultural Independiente Turubamba", "Tipos": "Espacio Multidisciplinario" }, "geometry": { "type": "Point", "coordinates": [ -78.5448, -0.2777 ] } },
{ "type": "Feature", "properties": { "Name": "Centro Cultural Pedro Vicente Maldonado", "Tipos": "Espacio Multidisciplinario" }, "geometry": { "type": "Point", "coordinates": [ -78.4945, -0.2142 ] } },
{ "type": "Feature", "properties": { "Name": "Casa de las Ciencias y las Artes La Barroca", "Tipos": "Espacio Multidisciplinario" }, "geometry": { "type": "Point", "coordinates": [ -78.4959, -0.2123 ] } },
{ "type": "Feature", "properties": { "Name": "Centro Cívico Cultural Museo y Biblioteca Mariscal Sucre", "Tipos": "Espacio Multidisciplinario" }, "geometry": { "type": "Point", "coordinates": [ -78.5542, -0.2759 ] } },
{ "type": "Feature", "properties": { "Name": "Centro Cultural Vitrum", "Tipos": "Espacio Multidisciplinario" }, "geometry": { "type": "Point", "coordinates": [ -78.4924, -0.2079 ] } },
{ "type": "Feature", "properties": { "Name": "Casa Toledo Centro de Arte y Cultura", "Tipos": "Espacio Multidisciplinario" }, "geometry": { "type": "Point", "coordinates": [ -78.4819, -0.2051 ] } },
{ "type": "Feature", "properties": { "Name": "Centro Cultural Entropía", "Tipos": "Espacio Multidisciplinario" }, "geometry": { "type": "Point", "coordinates": [ -78.478, -0.201 ] } },
{ "type": "Feature", "properties": { "Name": "Centro Cultural La Marín", "Tipos": "Espacio Multidisciplinario" }, "geometry": { "type": "Point", "coordinates": [ -78.5084, -0.2212 ] } },
{ "type": "Feature", "properties": { "Name": "Centro Cultural Pukará", "Tipos": "Espacio Multidisciplinario" }, "geometry": { "type": "Point", "coordinates": [ -78.4978, -0.2132 ] } },
{ "type": "Feature", "properties": { "Name": "Centro Cultural Ortodoxo", "Tipos": "Espacio Multidisciplinario" }, "geometry": { "type": "Point", "coordinates": [ -78.5017, -0.216 ] } },
{ "type": "Feature", "properties": { "Name": "Centro Cultural Casa Egüez", "Tipos": "Espacio Multidisciplinario" }, "geometry": { "type": "Point", "coordinates": [ -78.5026, -0.2093 ] } },
{ "type": "Feature", "properties": { "Name": "Casa de Saberes", "Tipos": "Espacio Multidisciplinario" }, "geometry": { "type": "Point", "coordinates": [ -78.4905, -0.2013 ] } },
{ "type": "Feature", "properties": { "Name": "Centro Cultural Tulpa", "Tipos": "Espacio Multidisciplinario" }, "geometry": { "type": "Point", "coordinates": [ -78.4795, -0.1972 ] } },
{ "type": "Feature", "properties": { "Name": "La Casa Catapulta", "Tipos": "Espacio Multidisciplinario" }, "geometry": { "type": "Point", "coordinates": [ -78.5098, -0.2191 ] } },
{ "type": "Feature", "properties": { "Name": "La Nube Casa Cultural", "Tipos": "Espacio Multidisciplinario" }, "geometry": { "type": "Point", "coordinates": [ -78.4895, -0.1693 ] } },
{ "type": "Feature", "properties": { "Name": "Guanguil. Espacio cultural", "Tipos": "Espacio Multidisciplinario" }, "geometry": { "type": "Point", "coordinates": [ -78.4718, -0.1763 ] } },
{ "type": "Feature", "properties": { "Name": "Casa Cultural A Contraluz", "Tipos": "Espacio Multidisciplinario" }, "geometry": { "type": "Point", "coordinates": [ -78.4827, -0.1316 ] } },
{ "type": "Feature", "properties": { "Name": "Casa Mitómana", "Tipos": "Espacio Multidisciplinario" }, "geometry": { "type": "Point", "coordinates": [ -78.499, -0.1853 ] } },
{ "type": "Feature", "properties": { "Name": "Espacio Cultural Corazón de Fuego", "Tipos": "Espacio Multidisciplinario" }, "geometry": { "type": "Point", "coordinates": [ -78.5155, -0.2235 ] } },
{ "type": "Feature", "properties": { "Name": "Centro Cultural Rompecandados", "Tipos": "Espacio Multidisciplinario" }, "geometry": { "type": "Point", "coordinates": [ -78.5532, -0.2762 ] } },
{ "type": "Feature", "properties": { "Name": "Casa Uvilla", "Tipos": "Espacio Multidisciplinario" }, "geometry": { "type": "Point", "coordinates": [ -78.5094, -0.2045 ] } },
{ "type": "Feature", "properties": { "Name": "La Casa Vieja", "Tipos": "Espacio Multidisciplinario" }, "geometry": { "type": "Point", "coordinates": [ -78.5062, -0.221 ] } },
{ "type": "Feature", "properties": { "Name": "Palenque Casa", "Tipos": "Espacio Multidisciplinario" }, "geometry": { "type": "Point", "coordinates": [ -78.5058, -0.2228 ] } },
{ "type": "Feature", "properties": { "Name": "Centro Cultural Biblioteca Ecuatoriana Aurelio Espinosa Pólit", "Tipos": "Espacio Multidisciplinario" }, "geometry": { "type": "Point", "coordinates": [ -78.4953, -0.1111 ] } },
{ "type": "Feature", "properties": { "Name": "Asociación Humboldt", "Tipos": "Espacio Multidisciplinario" }, "geometry": { "type": "Point", "coordinates": [ -78.4903, -0.1919 ] } },
{ "type": "Feature", "properties": { "Name": "IBEC Instituto Brasileiro-Ecuatoriano de Cultura", "Tipos": "Espacio Multidisciplinario" }, "geometry": { "type": "Point", "coordinates": [ -78.4937, -0.2079 ] } },
{ "type": "Feature", "properties": { "Name": "Sociedad Dante Alighieri", "Tipos": "Espacio Multidisciplinario" }, "geometry": { "type": "Point", "coordinates": [ -78.4855, -0.1939 ] } },
{ "type": "Feature", "properties": { "Name": "Casa Pradera", "Tipos": "Espacio Multidisciplinario" }, "geometry": { "type": "Point", "coordinates": [ -78.4856, -0.1958 ] } },
{ "type": "Feature", "properties": { "Name": "La Casa de Cuenca Centro Cultural", "Tipos": "Espacio Multidisciplinario" }, "geometry": { "type": "Point", "coordinates": [ -78.4871, -0.1939 ] } },
{ "type": "Feature", "properties": { "Name": "Dommo Plataforma Cultural", "Tipos": "Espacio Multidisciplinario" }, "geometry": { "type": "Point", "coordinates": [ -78.4893, -0.2035 ] } },
{ "type": "Feature", "properties": { "Name": "Cafetina", "Tipos": "Espacio Multidisciplinario" }, "geometry": { "type": "Point", "coordinates": [ -78.4827, -0.2086 ] } },
{ "type": "Feature", "properties": { "Name": "Centro Cultural de Música y Arte Terry Pazmiño", "Tipos": "Espacio Multidisciplinario" }, "geometry": { "type": "Point", "coordinates": [ -78.4362, -0.1554 ] } },
{ "type": "Feature", "properties": { "Name": "Emancipadx Laboratorio Artístico Colaborativo", "Tipos": "Espacio Multidisciplinario" }, "geometry": { "type": "Point", "coordinates": [ -78.5149, -0.2225 ] } },
{ "type": "Feature", "properties": { "Name": "Casal Català de Quito", "Tipos": "Espacio Multidisciplinario" }, "geometry": { "type": "Point", "coordinates": [ -78.493, -0.2002 ] } },
{ "type": "Feature", "properties": { "Name": "Parque Urbano Cumandá", "Tipos": "Espacio Multidisciplinario" }, "geometry": { "type": "Point", "coordinates": [ -78.5115, -0.2283 ] } },
{ "type": "Feature", "properties": { "Name": "ARCA Centro Cultural", "Tipos": "Espacio Multidisciplinario" }, "geometry": { "type": "Point", "coordinates": [ -78.4778, -0.2536 ] } },
{ "type": "Feature", "properties": { "Name": "Atemporal Laboratorio de Arte", "Tipos": "Espacio Multidisciplinario" }, "geometry": { "type": "Point", "coordinates": [ -78.4865, -0.1939 ] } },
{ "type": "Feature", "properties": { "Name": "Centro Cultural Santiago", "Tipos": "Espacio Multidisciplinario" }, "geometry": { "type": "Point", "coordinates": [ -78.5398, -0.2508 ] } },
{ "type": "Feature", "properties": { "Name": "Centro Cultural Pacha Callari", "Tipos": "Espacio Multidisciplinario" }, "geometry": { "type": "Point", "coordinates": [ -78.5174, -0.2631 ] } },
{ "type": "Feature", "properties": { "Name": "Centro Cultural Reverdecer", "Tipos": "Espacio Multidisciplinario" }, "geometry": { "type": "Point", "coordinates": [ -78.4948, -0.1608 ] } },
{ "type": "Feature", "properties": { "Name": "Centro Español", "Tipos": "Espacio Multidisciplinario" }, "geometry": { "type": "Point", "coordinates": [ -78.4905, -0.1919 ] } },
{ "type": "Feature", "properties": { "Name": "Casa Cultural Cantacorde", "Tipos": "Espacio Multidisciplinario" }, "geometry": { "type": "Point", "coordinates": [ -78.4416, -0.0062 ] } },
{ "type": "Feature", "properties": { "Name": "Centro Cultural Italiano", "Tipos": "Espacio Multidisciplinario" }, "geometry": { "type": "Point", "coordinates": [ -78.4907, -0.1918 ] } },
{ "type": "Feature", "properties": { "Name": "Casa Machankara", "Tipos": "Espacio Multidisciplinario" }, "geometry": { "type": "Point", "coordinates": [ -78.5135, -0.2329 ] } },
{ "type": "Feature", "properties": { "Name": "La Bodega 24/7 Centro Sociocultural", "Tipos": "Espacio Multidisciplinario" }, "geometry": { "type": "Point", "coordinates": [ -78.4616, -0.1441 ] } },
{ "type": "Feature", "properties": { "Name": "Terraza Ilaló Centro Cultural (TICC)", "Tipos": "Espacio Multidisciplinario" }, "geometry": { "type": "Point", "coordinates": [ -78.3862, -0.2325 ] } },
{ "type": "Feature", "properties": { "Name": "Centro Cultural Ayahuasca", "Tipos": "Espacio Multidisciplinario" }, "geometry": { "type": "Point", "coordinates": [ -78.3606, -0.1242 ] } },
{ "type": "Feature", "properties": { "Name": "Centro Cultural Árabe Latino", "Tipos": "Espacio Multidisciplinario" }, "geometry": { "type": "Point", "coordinates": [ -78.4806, -0.1749 ] } },
{ "type": "Feature", "properties": { "Name": "Centro Cultural Amauta", "Tipos": "Espacio Multidisciplinario" }, "geometry": { "type": "Point", "coordinates": [ -78.5155, -0.2233 ] } },
{ "type": "Feature", "properties": { "Name": "El Útero", "Tipos": "Espacio Multidisciplinario" }, "geometry": { "type": "Point", "coordinates": [ -78.4936, -0.2052 ] } },
{ "type": "Feature", "properties": { "Name": "Torno Co Lab", "Tipos": "Espacio Multidisciplinario" }, "geometry": { "type": "Point", "coordinates": [ -78.4875, -0.2002 ] } },
{ "type": "Feature", "properties": { "Name": "Centro Cultural Cooperación Ecuatoriano-Iraní", "Tipos": "Espacio Multidisciplinario" }, "geometry": { "type": "Point", "coordinates": [ -78.4966, -0.1758 ] } },
{ "type": "Feature", "properties": { "Name": "Centro Cultural Humayacu", "Tipos": "Espacio Multidisciplinario" }, "geometry": { "type": "Point", "coordinates": [ -78.4105, -0.0963 ] } },
{ "type": "Feature", "properties": { "Name": "Fundación Cultural Armonía", "Tipos": "Espacio Multidisciplinario" }, "geometry": { "type": "Point", "coordinates": [ -78.5085, -0.204 ] } },
{ "type": "Feature", "properties": { "Name": "La Emancipadora", "Tipos": "Espacio Multidisciplinario" }, "geometry": { "type": "Point", "coordinates": [ -78.5107, -0.2163 ] } },
{ "type": "Feature", "properties": { "Name": "Open De Dei", "Tipos": "Espacio Multidisciplinario" }, "geometry": { "type": "Point", "coordinates": [ -78.5095, -0.2163 ] } },
{ "type": "Feature", "properties": { "Name": "Estampería Quiteña", "Tipos": "Espacio Multidisciplinario" }, "geometry": { "type": "Point", "coordinates": [ -78.5068, -0.2112 ] } },
{ "type": "Feature", "properties": { "Name": "Cidanzcur", "Tipos": "Espacio Multidisciplinario" }, "geometry": { "type": "Point", "coordinates": [ -78.5315, -0.2406 ] } },
{ "type": "Feature", "properties": { "Name": "Centro Cultural de las Artes Quito", "Tipos": "Espacio Multidisciplinario" }, "geometry": { "type": "Point", "coordinates": [ -78.5149, -0.2199 ] } },
{ "type": "Feature", "properties": { "Name": "Teatro Nacional Sucre", "Tipos": "Espacios escenicos" }, "geometry": { "type": "Point", "coordinates": [ -78.5089, -0.2192 ] } },
{ "type": "Feature", "properties": { "Name": "Teatro Bolívar", "Tipos": "Espacios escenicos" }, "geometry": { "type": "Point", "coordinates": [ -78.511, -0.2215 ] } },
{ "type": "Feature", "properties": { "Name": "Teatro Capitol", "Tipos": "Espacios escenicos" }, "geometry": { "type": "Point", "coordinates": [ -78.5016, -0.2155 ] } },
{ "type": "Feature", "properties": { "Name": "Teatro Variedades Ernesto Albán", "Tipos": "Espacios escenicos" }, "geometry": { "type": "Point", "coordinates": [ -78.5084, -0.219 ] } },
{ "type": "Feature", "properties": { "Name": "Teatro México", "Tipos": "Espacios escenicos" }, "geometry": { "type": "Point", "coordinates": [ -78.5165, -0.24 ] } },
{ "type": "Feature", "properties": { "Name": "Teatro San Gabriel", "Tipos": "Espacios escenicos" }, "geometry": { "type": "Point", "coordinates": [ -78.4956, -0.1845 ] } },
{ "type": "Feature", "properties": { "Name": "Teatro Prometeo CCE", "Tipos": "Espacios escenicos" }, "geometry": { "type": "Point", "coordinates": [ -78.4968, -0.2102 ] } },
{ "type": "Feature", "properties": { "Name": "Teatro Universitario UCE", "Tipos": "Espacios escenicos" }, "geometry": { "type": "Point", "coordinates": [ -78.502, -0.2008 ] } },
{ "type": "Feature", "properties": { "Name": "Casa de Teatro Malayerba", "Tipos": "Espacios escenicos" }, "geometry": { "type": "Point", "coordinates": [ -78.5012, -0.2133 ] } },
{ "type": "Feature", "properties": { "Name": "Ballet Nacional de Ecuador", "Tipos": "Espacios escenicos" }, "geometry": { "type": "Point", "coordinates": [ -78.4741, -0.1706 ] } },
{ "type": "Feature", "properties": { "Name": "Teatro Chejov", "Tipos": "Espacios escenicos" }, "geometry": { "type": "Point", "coordinates": [ -78.4759, -0.1722 ] } },
{ "type": "Feature", "properties": { "Name": "Microteatro Uio", "Tipos": "Espacios escenicos" }, "geometry": { "type": "Point", "coordinates": [ -78.4865, -0.2009 ] } },
{ "type": "Feature", "properties": { "Name": "Teatro Politécnico", "Tipos": "Espacios escenicos" }, "geometry": { "type": "Point", "coordinates": [ -78.4904, -0.2116 ] } },
{ "type": "Feature", "properties": { "Name": "Teatro Anita Paredes de Alfaro", "Tipos": "Espacios escenicos" }, "geometry": { "type": "Point", "coordinates": [ -78.5115, -0.2312 ] } },
{ "type": "Feature", "properties": { "Name": "Teatro Charlot", "Tipos": "Espacios escenicos" }, "geometry": { "type": "Point", "coordinates": [ -78.4907, -0.1738 ] } },
{ "type": "Feature", "properties": { "Name": "Teatro Bakkus", "Tipos": "Espacios escenicos" }, "geometry": { "type": "Point", "coordinates": [ -78.5082, -0.1957 ] } },
{ "type": "Feature", "properties": { "Name": "Teatro Espada de Madera - Teatro del Pueblo", "Tipos": "Espacios escenicos" }, "geometry": { "type": "Point", "coordinates": [ -78.4378, -0.1509 ] } },
{ "type": "Feature", "properties": { "Name": "El Sótano de Nijinsky", "Tipos": "Espacios escenicos" }, "geometry": { "type": "Point", "coordinates": [ -78.4906, -0.2079 ] } },
{ "type": "Feature", "properties": { "Name": "Tri-Ciclo Sala de Artes Escénicas", "Tipos": "Espacios escenicos" }, "geometry": { "type": "Point", "coordinates": [ -78.495, -0.2101 ] } },
{ "type": "Feature", "properties": { "Name": "Casa Teatro de los Silfos", "Tipos": "Espacios escenicos" }, "geometry": { "type": "Point", "coordinates": [ -78.5081, -0.215 ] } },
{ "type": "Feature", "properties": { "Name": "Cuco Teatro", "Tipos": "Espacios escenicos" }, "geometry": { "type": "Point", "coordinates": [ -78.5321, -0.2649 ] } },
{ "type": "Feature", "properties": { "Name": "Espacio Vazio", "Tipos": "Espacios escenicos" }, "geometry": { "type": "Point", "coordinates": [ -78.4984, -0.2067 ] } },
{ "type": "Feature", "properties": { "Name": "El Teatro (CCI)", "Tipos": "Espacios escenicos" }, "geometry": { "type": "Point", "coordinates": [ -78.4849, -0.1773 ] } },
{ "type": "Feature", "properties": { "Name": "Ballet Folclórico Nacional Jacchigua", "Tipos": "Espacios escenicos" }, "geometry": { "type": "Point", "coordinates": [ -78.5052, -0.2188 ] } },
{ "type": "Feature", "properties": { "Name": "Biblioteca Nacional del Ecuador Eugenio Espejo", "Tipos": "Espacios editoriales y literaris" }, "geometry": { "type": "Point", "coordinates": [ -78.4995, -0.2162 ] } },
{ "type": "Feature", "properties": { "Name": "Biblioteca Municipal Central Federico González Suárez", "Tipos": "Espacios editoriales y literaris" }, "geometry": { "type": "Point", "coordinates": [ -78.5133, -0.2205 ] } },
{ "type": "Feature", "properties": { "Name": "Biblioteca FLACSO", "Tipos": "Espacios editoriales y literaris" }, "geometry": { "type": "Point", "coordinates": [ -78.4868, -0.194 ] } },
{ "type": "Feature", "properties": { "Name": "Biblioteca General PUCE", "Tipos": "Espacios editoriales y literaris" }, "geometry": { "type": "Point", "coordinates": [ -78.4909, -0.2097 ] } },
{ "type": "Feature", "properties": { "Name": "Biblioteca Universidad Central del Ecuador", "Tipos": "Espacios editoriales y literaris" }, "geometry": { "type": "Point", "coordinates": [ -78.5058, -0.199 ] } },
{ "type": "Feature", "properties": { "Name": "Biblioteca Pública de la Casa de las Culturas", "Tipos": "Espacios editoriales y literaris" }, "geometry": { "type": "Point", "coordinates": [ -78.4954, -0.2104 ] } },
{ "type": "Feature", "properties": { "Name": "Casa Palabra Biblioteca", "Tipos": "Espacios editoriales y literaris" }, "geometry": { "type": "Point", "coordinates": [ -78.4855, -0.2067 ] } },
{ "type": "Feature", "properties": { "Name": "Andoteca (Cumbayá)", "Tipos": "Espacios editoriales y literaris" }, "geometry": { "type": "Point", "coordinates": [ -78.4247, -0.2024 ] } },
{ "type": "Feature", "properties": { "Name": "Biblioteca Infantil Lupini", "Tipos": "Espacios editoriales y literaris" }, "geometry": { "type": "Point", "coordinates": [ -78.4734, -0.1876 ] } },
{ "type": "Feature", "properties": { "Name": "The English Lending Library (TELL)", "Tipos": "Espacios editoriales y literaris" }, "geometry": { "type": "Point", "coordinates": [ -78.4814, -0.1594 ] } },
{ "type": "Feature", "properties": { "Name": "Mediateca Alianza Francesa de Quito", "Tipos": "Espacios editoriales y literaris" }, "geometry": { "type": "Point", "coordinates": [ -78.4813, -0.1883 ] } },
{ "type": "Feature", "properties": { "Name": "El Farol Café Libro", "Tipos": "Espacios editoriales y literaris" }, "geometry": { "type": "Point", "coordinates": [ -78.51, -0.2155 ] } },
{ "type": "Feature", "properties": { "Name": "Tres Gatos Cafetería Librería", "Tipos": "Espacios editoriales y literaris" }, "geometry": { "type": "Point", "coordinates": [ -78.4905, -0.2068 ] } },
{ "type": "Feature", "properties": { "Name": "Fondo de Cultura Económica", "Tipos": "Espacios editoriales y literaris" }, "geometry": { "type": "Point", "coordinates": [ -78.4859, -0.201 ] } },
{ "type": "Feature", "properties": { "Name": "Librería Rayuela", "Tipos": "Espacios editoriales y literaris" }, "geometry": { "type": "Point", "coordinates": [ -78.4759, -0.1799 ] } },
{ "type": "Feature", "properties": { "Name": "El Oso Lector", "Tipos": "Espacios editoriales y literaris" }, "geometry": { "type": "Point", "coordinates": [ -78.4822, -0.2055 ] } },
{ "type": "Feature", "properties": { "Name": "Cronopios Librería", "Tipos": "Espacios editoriales y literaris" }, "geometry": { "type": "Point", "coordinates": [ -78.4892, -0.2843 ] } },
{ "type": "Feature", "properties": { "Name": "Librería Española Matriz", "Tipos": "Espacios editoriales y literaris" }, "geometry": { "type": "Point", "coordinates": [ -78.4999, -0.2075 ] } },
{ "type": "Feature", "properties": { "Name": "Librería Española CCI", "Tipos": "Espacios editoriales y literaris" }, "geometry": { "type": "Point", "coordinates": [ -78.4852, -0.1774 ] } },
{ "type": "Feature", "properties": { "Name": "El Quijote Librería", "Tipos": "Espacios editoriales y literaris" }, "geometry": { "type": "Point", "coordinates": [ -78.4942, -0.1722 ] } },
{ "type": "Feature", "properties": { "Name": "Librería Nacional (Filatelia, Numismática)", "Tipos": "Espacios editoriales y literaris" }, "geometry": { "type": "Point", "coordinates": [ -78.5111, -0.2183 ] } },
{ "type": "Feature", "properties": { "Name": "Books & Bits", "Tipos": "Espacios editoriales y literaris" }, "geometry": { "type": "Point", "coordinates": [ -78.4923, -0.2061 ] } },
{ "type": "Feature", "properties": { "Name": "Ulysses & Co. Librería", "Tipos": "Espacios editoriales y literaris" }, "geometry": { "type": "Point", "coordinates": [ -78.5116, -0.2154 ] } },
{ "type": "Feature", "properties": { "Name": "Tertulia Librería", "Tipos": "Espacios editoriales y literaris" }, "geometry": { "type": "Point", "coordinates": [ -78.4835, -0.2079 ] } },
{ "type": "Feature", "properties": { "Name": "La Librería de la Foch", "Tipos": "Espacios editoriales y literaris" }, "geometry": { "type": "Point", "coordinates": [ -78.4902, -0.2042 ] } },
{ "type": "Feature", "properties": { "Name": "El Come Libros", "Tipos": "Espacios editoriales y literaris" }, "geometry": { "type": "Point", "coordinates": [ -78.4991, -0.1963 ] } },
{ "type": "Feature", "properties": { "Name": "Biblioteca Municipal San Marcos", "Tipos": "Espacios editoriales y literaris" }, "geometry": { "type": "Point", "coordinates": [ -78.5087, -0.225 ] } },
{ "type": "Feature", "properties": { "Name": "Facultad de Artes Universidad Central del Ecuador", "Tipos": "Espacios de artes visuales" }, "geometry": { "type": "Point", "coordinates": [ -78.5065, -0.2009 ] } },
{ "type": "Feature", "properties": { "Name": "USFQ Colegio de Comunicación y Artes Contemporáneas", "Tipos": "Espacios de artes visuales" }, "geometry": { "type": "Point", "coordinates": [ -78.4361, -0.1969 ] } },
{ "type": "Feature", "properties": { "Name": "N24 Galería de Arte", "Tipos": "Espacios de artes visuales" }, "geometry": { "type": "Point", "coordinates": [ -78.4858, -0.2065 ] } },
{ "type": "Feature", "properties": { "Name": "Galería Kingman", "Tipos": "Espacios de artes visuales" }, "geometry": { "type": "Point", "coordinates": [ -78.4888, -0.2033 ] } },
{ "type": "Feature", "properties": { "Name": "Galería Sara Palacios", "Tipos": "Espacios de artes visuales" }, "geometry": { "type": "Point", "coordinates": [ -78.4325, -0.1679 ] } },
{ "type": "Feature", "properties": { "Name": "No Lugar Arte Contemporáneo", "Tipos": "Espacios de artes visuales" }, "geometry": { "type": "Point", "coordinates": [ -78.5054, -0.2202 ] } },
{ "type": "Feature", "properties": { "Name": "La Minga Galería", "Tipos": "Espacios de artes visuales" }, "geometry": { "type": "Point", "coordinates": [ -78.4862, -0.1941 ] } },
{ "type": "Feature", "properties": { "Name": "Galería Gogh", "Tipos": "Espacios de artes visuales" }, "geometry": { "type": "Point", "coordinates": [ -78.4835, -0.1896 ] } },
{ "type": "Feature", "properties": { "Name": "Galería Gogh (Cumbayá)", "Tipos": "Espacios de artes visuales" }, "geometry": { "type": "Point", "coordinates": [ -78.4382, -0.1972 ] } },
{ "type": "Feature", "properties": { "Name": "Galería ArteActual", "Tipos": "Espacios de artes visuales" }, "geometry": { "type": "Point", "coordinates": [ -78.4859, -0.1958 ] } },
{ "type": "Feature", "properties": { "Name": "Imaginar Casa de Arte (matriz)", "Tipos": "Espacios de artes visuales" }, "geometry": { "type": "Point", "coordinates": [ -78.4815, -0.1884 ] } },
{ "type": "Feature", "properties": { "Name": "Imaginar Casa de Arte (Cumbayá)", "Tipos": "Espacios de artes visuales" }, "geometry": { "type": "Point", "coordinates": [ -78.4392, -0.1969 ] } },
{ "type": "Feature", "properties": { "Name": "Parterre Galería", "Tipos": "Espacios de artes visuales" }, "geometry": { "type": "Point", "coordinates": [ -78.4925, -0.2109 ] } },
{ "type": "Feature", "properties": { "Name": "Expressarte", "Tipos": "Espacios de artes visuales" }, "geometry": { "type": "Point", "coordinates": [ -78.4941, -0.1897 ] } },
{ "type": "Feature", "properties": { "Name": "Pedro Eljuri Galería", "Tipos": "Espacios de artes visuales" }, "geometry": { "type": "Point", "coordinates": [ -78.4826, -0.1894 ] } },
{ "type": "Feature", "properties": { "Name": "Ileana Viteri Galería", "Tipos": "Espacios de artes visuales" }, "geometry": { "type": "Point", "coordinates": [ -78.4849, -0.204 ] } },
{ "type": "Feature", "properties": { "Name": "Almendra Casa de Arte", "Tipos": "Espacios de artes visuales" }, "geometry": { "type": "Point", "coordinates": [ -78.484, -0.208 ] } },
{ "type": "Feature", "properties": { "Name": "Arte Total", "Tipos": "Espacios de artes visuales" }, "geometry": { "type": "Point", "coordinates": [ -78.4287, -0.1971 ] } },
{ "type": "Feature", "properties": { "Name": "VuelArte Galería", "Tipos": "Espacios de artes visuales" }, "geometry": { "type": "Point", "coordinates": [ -78.4969, -0.1731 ] } },
{ "type": "Feature", "properties": { "Name": "OHM-MHO", "Tipos": "Espacios de artes visuales" }, "geometry": { "type": "Point", "coordinates": [ -78.4905, -0.1733 ] } },
{ "type": "Feature", "properties": { "Name": "Puente Laboratorio de Creación Artística", "Tipos": "Espacios de artes visuales" }, "geometry": { "type": "Point", "coordinates": [ -78.4786, -0.1651 ] } },
{ "type": "Feature", "properties": { "Name": "Galería de Arte Beni", "Tipos": "Espacios de artes visuales" }, "geometry": { "type": "Point", "coordinates": [ -78.4856, -0.1919 ] } },
{ "type": "Feature", "properties": { "Name": "Nudo Street Art Gallery", "Tipos": "Espacios de artes visuales" }, "geometry": { "type": "Point", "coordinates": [ -78.4829, -0.2086 ] } },
{ "type": "Feature", "properties": { "Name": "Genial Galería de Arte de Rosy Revelo", "Tipos": "Espacios de artes visuales" }, "geometry": { "type": "Point", "coordinates": [ -78.4814, -0.2085 ] } },
{ "type": "Feature", "properties": { "Name": "Toro Art Studio", "Tipos": "Espacios de artes visuales" }, "geometry": { "type": "Point", "coordinates": [ -78.4478, -0.1884 ] } },
{ "type": "Feature", "properties": { "Name": "Galería Salvador", "Tipos": "Espacios de artes visuales" }, "geometry": { "type": "Point", "coordinates": [ -78.5051, -0.1038 ] } },
{ "type": "Feature", "properties": { "Name": "Café Galería", "Tipos": "Espacios de artes visuales" }, "geometry": { "type": "Point", "coordinates": [ -78.5118, -0.2206 ] } },
{ "type": "Feature", "properties": { "Name": "Casa Piedra Galería de Arte", "Tipos": "Espacios de artes visuales" }, "geometry": { "type": "Point", "coordinates": [ -78.5095, -0.205 ] } },
{ "type": "Feature", "properties": { "Name": "Versatil - Galería de diseño independiente", "Tipos": "Espacios de artes visuales" }, "geometry": { "type": "Point", "coordinates": [ -78.4288, -0.2006 ] } },
{ "type": "Feature", "properties": { "Name": "Abelha Galería", "Tipos": "Espacios de artes visuales" }, "geometry": { "type": "Point", "coordinates": [ -78.4789, -0.1975 ] } },
{ "type": "Feature", "properties": { "Name": "Le Petit Atelier", "Tipos": "Espacios de artes visuales" }, "geometry": { "type": "Point", "coordinates": [ -78.4768, -0.1817 ] } },
{ "type": "Feature", "properties": { "Name": "Contempo Gallery", "Tipos": "Espacios de artes visuales" }, "geometry": { "type": "Point", "coordinates": [ -78.4763, -0.1833 ] } },
{ "type": "Feature", "properties": { "Name": "Galería Arte Beltrán", "Tipos": "Espacios de artes visuales" }, "geometry": { "type": "Point", "coordinates": [ -78.4946, -0.207 ] } },
{ "type": "Feature", "properties": { "Name": "Galería de Arte Sephia", "Tipos": "Espacios de artes visuales" }, "geometry": { "type": "Point", "coordinates": [ -78.485, -0.1774 ] } },
{ "type": "Feature", "properties": { "Name": "Opus Mae Galería de Arte", "Tipos": "Espacios de artes visuales" }, "geometry": { "type": "Point", "coordinates": [ -78.4842, -0.1754 ] } },
{ "type": "Feature", "properties": { "Name": "Atuczara Taller Galería", "Tipos": "Espacios de artes visuales" }, "geometry": { "type": "Point", "coordinates": [ -78.4816, -0.2058 ] } },
{ "type": "Feature", "properties": { "Name": "Florarte", "Tipos": "Espacios de artes visuales" }, "geometry": { "type": "Point", "coordinates": [ -78.4344, -0.1883 ] } },
{ "type": "Feature", "properties": { "Name": "Bellas Artes Quito", "Tipos": "Espacios de artes visuales" }, "geometry": { "type": "Point", "coordinates": [ -78.4813, -0.1642 ] } },
{ "type": "Feature", "properties": { "Name": "Escuela de Arte Quiteño", "Tipos": "Espacios de artes visuales" }, "geometry": { "type": "Point", "coordinates": [ -78.5117, -0.2177 ] } },
{ "type": "Feature", "properties": { "Name": "Galmor Taller de Arte y Manualidades", "Tipos": "Espacios de artes visuales" }, "geometry": { "type": "Point", "coordinates": [ -78.4835, -0.1981 ] } },
{ "type": "Feature", "properties": { "Name": "Redytus Escuela de Arte", "Tipos": "Espacios de artes visuales" }, "geometry": { "type": "Point", "coordinates": [ -78.4874, -0.2029 ] } },
{ "type": "Feature", "properties": { "Name": "Melody Estudio de Arte", "Tipos": "Espacios de artes visuales" }, "geometry": { "type": "Point", "coordinates": [ -78.5101, -0.2092 ] } },
{ "type": "Feature", "properties": { "Name": "Imaginar Casa de Arte (sucursal Brasil)", "Tipos": "Espacios de artes visuales" }, "geometry": { "type": "Point", "coordinates": [ -78.4898, -0.1634 ] } },
{ "type": "Feature", "properties": { "Name": "La Casa de Marco Gayo", "Tipos": "Espacios de artes visuales" }, "geometry": { "type": "Point", "coordinates": [ -78.4906, -0.1739 ] } },
{ "type": "Feature", "properties": { "Name": "Galería de Arte Revollo Trujillo", "Tipos": "Espacios de artes visuales" }, "geometry": { "type": "Point", "coordinates": [ -78.4192, -0.1145 ] } },
{ "type": "Feature", "properties": { "Name": "Mercado Artesanal La Mariscal", "Tipos": "Espacios de diseños y artes plasticas" }, "geometry": { "type": "Point", "coordinates": [ -78.4951, -0.2071 ] } },
{ "type": "Feature", "properties": { "Name": "Olga Fisch Folklore", "Tipos": "Espacios de diseños y artes plasticas" }, "geometry": { "type": "Point", "coordinates": [ -78.4843, -0.2028 ] } },
{ "type": "Feature", "properties": { "Name": "Centro Comercial Artesanal Quitus", "Tipos": "Espacios de diseños y artes plasticas" }, "geometry": { "type": "Point", "coordinates": [ -78.4993, -0.2031 ] } },
{ "type": "Feature", "properties": { "Name": "La Imaginativa", "Tipos": "Espacios de diseños y artes plasticas" }, "geometry": { "type": "Point", "coordinates": [ -78.4834, -0.2059 ] } },
{ "type": "Feature", "properties": { "Name": "Galeria Artesanal Mitad del Mundo", "Tipos": "Espacios de diseños y artes plasticas" }, "geometry": { "type": "Point", "coordinates": [ -78.4956, -0.2068 ] } },
{ "type": "Feature", "properties": { "Name": "Quito Jazz Club", "Tipos": "Espacios Hibridos" }, "geometry": { "type": "Point", "coordinates": [ -78.494328388955793, -0.208876182878772 ] } },
{ "type": "Feature", "properties": { "Name": "La Caponata", "Tipos": "Espacios Hibridos" }, "geometry": { "type": "Point", "coordinates": [ -78.510573304296997, -0.217733795914475 ] } },
{ "type": "Feature", "properties": { "Name": "Mal de Amores Quito", "Tipos": "Espacios Hibridos" }, "geometry": { "type": "Point", "coordinates": [ -78.493031993233501, -0.176387817803929 ] } },
{ "type": "Feature", "properties": { "Name": "Alebrije Quito", "Tipos": "Espacios Hibridos" }, "geometry": { "type": "Point", "coordinates": [ -78.485220663192607, -0.194954010967172 ] } },
{ "type": "Feature", "properties": { "Name": "Casa Buenaventura", "Tipos": "Espacios Hibridos" }, "geometry": { "type": "Point", "coordinates": [ -78.497115346626401, -0.206711711643585 ] } },
{ "type": "Feature", "properties": { "Name": "Zingaro", "Tipos": "Espacios Hibridos" }, "geometry": { "type": "Point", "coordinates": [ -78.485685941172605, -0.214186095902285 ] } },
{ "type": "Feature", "properties": { "Name": "Reds Quito", "Tipos": "Espacios Hibridos" }, "geometry": { "type": "Point", "coordinates": [ -78.485260953373498, -0.194370841096734 ] } },
{ "type": "Feature", "properties": { "Name": "Buho's Musik Restaurant", "Tipos": "Espacios Hibridos" }, "geometry": { "type": "Point", "coordinates": [ -78.5135371, -0.225195129452932 ] } },
{ "type": "Feature", "properties": { "Name": "Rhapsody Retro Music", "Tipos": "Espacios Hibridos" }, "geometry": { "type": "Point", "coordinates": [ -78.492537111656603, -0.176024 ] } },
{ "type": "Feature", "properties": { "Name": "Los Fogones de Jazmin", "Tipos": "Espacios Hibridos" }, "geometry": { "type": "Point", "coordinates": [ -78.513746066860705, -0.224963289059068 ] } },
{ "type": "Feature", "properties": { "Name": "Here Comes the Sun", "Tipos": "Espacios Hibridos" }, "geometry": { "type": "Point", "coordinates": [ -78.380538882365101, -0.207516569861126 ] } },
{ "type": "Feature", "properties": { "Name": "Restaurante Centro Cultural Hernández", "Tipos": "Espacios Hibridos" }, "geometry": { "type": "Point", "coordinates": [ -78.515782449092896, -0.224211561578666 ] } },
{ "type": "Feature", "properties": { "Name": "Casa de la Música", "Tipos": "Espacio musical" }, "geometry": { "type": "Point", "coordinates": [ -78.5021, -0.1812 ] } },
{ "type": "Feature", "properties": { "Name": "SoundGarden Uio", "Tipos": "Espacio musical" }, "geometry": { "type": "Point", "coordinates": [ -78.4101, -0.2133 ] } },
{ "type": "Feature", "properties": { "Name": "Conservatorio Nacional de Música de Ecuador", "Tipos": "Espacio musical" }, "geometry": { "type": "Point", "coordinates": [ -78.4725, -0.171 ] } },
{ "type": "Feature", "properties": { "Name": "Conservatorio Franz Liszt", "Tipos": "Espacio musical" }, "geometry": { "type": "Point", "coordinates": [ -78.4899, -0.1739 ] } },
{ "type": "Feature", "properties": { "Name": "La Lira", "Tipos": "Espacio musical" }, "geometry": { "type": "Point", "coordinates": [ -78.4883, -0.1746 ] } },
{ "type": "Feature", "properties": { "Name": "Casa Amarilla Sede de la Orquesta Joven del Ecuador", "Tipos": "Espacio musical" }, "geometry": { "type": "Point", "coordinates": [ -78.4948, -0.2087 ] } },
{ "type": "Feature", "properties": { "Name": "Conservatorio Mozarte", "Tipos": "Espacio musical" }, "geometry": { "type": "Point", "coordinates": [ -78.4755, -0.1807 ] } },
{ "type": "Feature", "properties": { "Name": "Conservatorio Superior de Música Jaime Mola", "Tipos": "Espacio musical" }, "geometry": { "type": "Point", "coordinates": [ -78.4976, -0.1965 ] } },
{ "type": "Feature", "properties": { "Name": "Esquivel Escuela de Música y Artes", "Tipos": "Espacio musical" }, "geometry": { "type": "Point", "coordinates": [ -78.4947, -0.1671 ] } },
{ "type": "Feature", "properties": { "Name": "Musicarium Music Institute & Services", "Tipos": "Espacio musical" }, "geometry": { "type": "Point", "coordinates": [ -78.4917, -0.1564 ] } },
{ "type": "Feature", "properties": { "Name": "Cinemateca Nacional del Ecuador", "Tipos": "Espacios Audiovisuales" }, "geometry": { "type": "Point", "coordinates": [ -78.4959, -0.2097 ] } },
{ "type": "Feature", "properties": { "Name": "Ochoymedio Ecuador", "Tipos": "Espacios Audiovisuales" }, "geometry": { "type": "Point", "coordinates": [ -78.4838, -0.2075 ] } }
]
}
