{
"type": "FeatureCollection",
"name": "Infraestructual_Cultural_Provincias",
"crs": { "type": "name", "properties": { "name": "urn:ogc:def:crs:OGC:1.3:CRS84" } },
"features": [
{ "type": "Feature", "properties": { "categoria": "Espacios Audiovisuales", "nombre": "Centrocomercial Azriel", "provincia": "Orellana", "canton": "Coca" }, "geometry": { "type": "Point", "coordinates": [ -76.984285365291029, -0.474125775923104 ] } },
{ "type": "Feature", "properties": { "categoria": "Espacios Audiovisuales", "nombre": "Mall El Fortín", "provincia": "Guayas", "canton": "Guayaquil" }, "geometry": { "type": "Point", "coordinates": [ -79.949070750284164, -2.109123279689738 ] } },
{ "type": "Feature", "properties": { "categoria": "Espacios Escénicos", "nombre": "Auditorio Ex Teatro Municipal, Ibarra", "provincia": "Imbabura", "canton": "Ibarra" }, "geometry": { "type": "Point", "coordinates": [ -78.116749380802887, 0.351654589380785 ] } },
{ "type": "Feature", "properties": { "categoria": "Espacios Escénicos", "nombre": "Auditorio Monseñor Leonidas Proaño, Ibarra", "provincia": "Imbabura", "canton": "Ibarra" }, "geometry": { "type": "Point", "coordinates": [ -78.11853549092514, 0.351682252424495 ] } },
{ "type": "Feature", "properties": { "categoria": "Espacios Escénicos", "nombre": "Teatro Municipal, Cotacachi", "provincia": "Imbabura", "canton": "Cotacachi" }, "geometry": { "type": "Point", "coordinates": [ -78.264114118596453, 0.299411603340644 ] } },
{ "type": "Feature", "properties": { "categoria": "Espacios Escénicos", "nombre": "Sala Pequeña Café Sisa, Otavalo", "provincia": "Imbabura", "canton": "Otavalo" }, "geometry": { "type": "Point", "coordinates": [ -78.26324122990988, 0.227025625094639 ] } },
{ "type": "Feature", "properties": { "categoria": "Espacios Escénicos", "nombre": "Yachay, Urcuquí", "provincia": "Imbabura", "canton": "Urcuquí" }, "geometry": { "type": "Point", "coordinates": [ -78.176400650982913, 0.410498964698891 ] } },
{ "type": "Feature", "properties": { "categoria": "Espacios Escénicos", "nombre": "Teatro CCE, Tulcán", "provincia": "Carchi", "canton": "Tulcán" }, "geometry": { "type": "Point", "coordinates": [ -77.715932501934262, 0.818060095066511 ] } },
{ "type": "Feature", "properties": { "categoria": "Espacios Escénicos", "nombre": "Municipio de San Gabriel, San Gabriel", "provincia": "Carchi", "canton": "San Gabriel" }, "geometry": { "type": "Point", "coordinates": [ -77.822900073019213, 0.59958286287683 ] } },
{ "type": "Feature", "properties": { "categoria": "Espacios Escénicos", "nombre": "Teatro Municipal, Mira", "provincia": "Carchi", "canton": "Mira" }, "geometry": { "type": "Point", "coordinates": [ -78.040595780487948, 0.550024672592216 ] } },
{ "type": "Feature", "properties": { "categoria": "Espacios Escénicos", "nombre": "Teatro Municipal, Espejo", "provincia": "Carchi", "canton": "Espejo" }, "geometry": { "type": "Point", "coordinates": [ -77.938951016375455, 0.621251301555571 ] } },
{ "type": "Feature", "properties": { "categoria": "Espacios Escénicos", "nombre": "Casa de la Cultura Ecuatoriana, Tena", "provincia": "Napo", "canton": "Tena" }, "geometry": { "type": "Point", "coordinates": [ -77.811754876344637, -0.986065160382858 ] } },
{ "type": "Feature", "properties": { "categoria": "Espacios Escénicos", "nombre": "Auditorio Municipal, Archidona", "provincia": "Napo", "canton": "Archidona" }, "geometry": { "type": "Point", "coordinates": [ -77.806492132350243, -0.908870401869381 ] } },
{ "type": "Feature", "properties": { "categoria": "Espacios Escénicos", "nombre": "Municipio de Latacunga, Latacunga", "provincia": "Cotopaxi", "canton": "Latacunga" }, "geometry": { "type": "Point", "coordinates": [ -78.614235930083495, -0.93383453604126 ] } },
{ "type": "Feature", "properties": { "categoria": "Espacios Escénicos", "nombre": "Auditorio GADP, Latacunga", "provincia": "Cotopaxi", "canton": "Latacunga" }, "geometry": { "type": "Point", "coordinates": [ -78.615096853677272, -0.935561650626674 ] } },
{ "type": "Feature", "properties": { "categoria": "Espacios Escénicos", "nombre": "Teatro CCE, Latacunga", "provincia": "Cotopaxi", "canton": "Latacunga" }, "geometry": { "type": "Point", "coordinates": [ -78.618375094035116, -0.934822660207993 ] } },
{ "type": "Feature", "properties": { "categoria": "Espacios Escénicos", "nombre": "Auditorio Municipal, Salcedo", "provincia": "Cotopaxi", "canton": "Salcedo" }, "geometry": { "type": "Point", "coordinates": [ -78.591347566310546, -1.043555241089948 ] } },
{ "type": "Feature", "properties": { "categoria": "Espacios Escénicos", "nombre": "Auditorio Municipal, Saquisilí", "provincia": "Cotopaxi", "canton": "Saquisilí" }, "geometry": { "type": "Point", "coordinates": [ -78.666290859127471, -0.83933211460299 ] } },
{ "type": "Feature", "properties": { "categoria": "Espacios Escénicos", "nombre": "Teatrino Municipal, Riobamba", "provincia": "Chimborazo", "canton": "Riobamba" }, "geometry": { "type": "Point", "coordinates": [ -78.648815425043068, -1.672963284837628 ] } },
{ "type": "Feature", "properties": { "categoria": "Espacios Escénicos", "nombre": "Auditorio GADP, Riobamba", "provincia": "Chimborazo", "canton": "Riobamba" }, "geometry": { "type": "Point", "coordinates": [ -78.652808642277122, -1.668936432631702 ] } },
{ "type": "Feature", "properties": { "categoria": "Espacios Escénicos", "nombre": "Teatro Colegio Maldonado, Riobamba", "provincia": "Chimborazo", "canton": "Riobamba" }, "geometry": { "type": "Point", "coordinates": [ -78.649994180037368, -1.671292382364244 ] } },
{ "type": "Feature", "properties": { "categoria": "Espacios Escénicos", "nombre": "Sala Pequeña Municipal, Chambo", "provincia": "Chimborazo", "canton": "Chambo" }, "geometry": { "type": "Point", "coordinates": [ -78.59714770786313, -1.730010188834667 ] } },
{ "type": "Feature", "properties": { "categoria": "Espacios Escénicos", "nombre": "Auditorio GADP, Ambato", "provincia": "Tungurahua", "canton": "Ambato" }, "geometry": { "type": "Point", "coordinates": [ -78.629970950697981, -1.242092040033612 ] } },
{ "type": "Feature", "properties": { "categoria": "Espacios Escénicos", "nombre": "Sala Pequeña CCE, Ambato", "provincia": "Tungurahua", "canton": "Ambato" }, "geometry": { "type": "Point", "coordinates": [ -78.629504328169148, -1.241648683906925 ] } },
{ "type": "Feature", "properties": { "categoria": "Espacios Escénicos", "nombre": "Sala Multiusos Mosaico Espacios, Ambato", "provincia": "Tungurahua", "canton": "Ambato" }, "geometry": { "type": "Point", "coordinates": [ -78.628354876792585, -1.241503014225837 ] } },
{ "type": "Feature", "properties": { "categoria": "Espacios Escénicos", "nombre": "Auditorio Municipal, Baños", "provincia": "Tungurahua", "canton": "Baños de Agua Santa" }, "geometry": { "type": "Point", "coordinates": [ -78.423027174654408, -1.398065724740516 ] } },
{ "type": "Feature", "properties": { "categoria": "Espacios Escénicos", "nombre": "Auditorio Municipal, Pelileo", "provincia": "Tungurahua", "canton": "Pelileo" }, "geometry": { "type": "Point", "coordinates": [ -78.54516178628694, -1.329953716244913 ] } },
{ "type": "Feature", "properties": { "categoria": "Espacios Escénicos", "nombre": "Teatro Sindicato de Choferes, Pelileo", "provincia": "Tungurahua", "canton": "Pelileo" }, "geometry": { "type": "Point", "coordinates": [ -78.549246650155837, -1.331404034619495 ] } },
{ "type": "Feature", "properties": { "categoria": "Espacios Escénicos", "nombre": "Auditorio MCYP, Portoviejo", "provincia": "Manabí", "canton": "Portoviejo" }, "geometry": { "type": "Point", "coordinates": [ -80.451086027013702, -1.056893351279762 ] } },
{ "type": "Feature", "properties": { "categoria": "Espacios Escénicos", "nombre": "Auditorio Municipal, Portoviejo", "provincia": "Manabí", "canton": "Portoviejo" }, "geometry": { "type": "Point", "coordinates": [ -80.450070274164247, -1.057607872650461 ] } },
{ "type": "Feature", "properties": { "categoria": "Espacios Escénicos", "nombre": "Sala Pequeña CCE, Portoviejo", "provincia": "Manabí", "canton": "Portoviejo" }, "geometry": { "type": "Point", "coordinates": [ -80.454249299284584, -1.059481317098705 ] } },
{ "type": "Feature", "properties": { "categoria": "Espacios Escénicos", "nombre": "Teatro Municipal, Bahía de Caráquez", "provincia": "Manabí", "canton": "Sucre" }, "geometry": { "type": "Point", "coordinates": [ -80.424376896524521, -0.603044975158419 ] } },
{ "type": "Feature", "properties": { "categoria": "Espacios Escénicos", "nombre": "Sala Multiusos MCYP, Bahía de Caráquez", "provincia": "Manabí", "canton": "Sucre" }, "geometry": { "type": "Point", "coordinates": [ -80.423621804556333, -0.604962825408642 ] } },
{ "type": "Feature", "properties": { "categoria": "Espacios Escénicos", "nombre": "Auditorio Municipal, Chone", "provincia": "Manabí", "canton": "Chone" }, "geometry": { "type": "Point", "coordinates": [ -80.094466446991703, -0.69834636934203 ] } },
{ "type": "Feature", "properties": { "categoria": "Espacios Escénicos", "nombre": "Teatro Universidad Eloy Alfaro, Manta", "provincia": "Manabí", "canton": "Manta" }, "geometry": { "type": "Point", "coordinates": [ -80.745973405790295, -0.954128424999378 ] } },
{ "type": "Feature", "properties": { "categoria": "Espacios Escénicos", "nombre": "Auditorio Municipal, Rocafuerte", "provincia": "Manabí", "canton": "Rocafuerte" }, "geometry": { "type": "Point", "coordinates": [ -80.449651898379599, -0.924121281895065 ] } },
{ "type": "Feature", "properties": { "categoria": "Espacios Escénicos", "nombre": "Iglesia Municipal, San Vicente", "provincia": "Manabí", "canton": "San Vicente" }, "geometry": { "type": "Point", "coordinates": [ -80.409541004535257, -0.591128713231975 ] } },
{ "type": "Feature", "properties": { "categoria": "Espacios Escénicos", "nombre": "Auditorio Municipal, Santo Domingo de Los Tsáchilas", "provincia": "Santo Domingo de los Tsáchilas", "canton": "Santo Domingo" }, "geometry": { "type": "Point", "coordinates": [ -79.168940593165814, -0.254153067580693 ] } },
{ "type": "Feature", "properties": { "categoria": "Espacios Escénicos", "nombre": "Teatro Casa de Arte, Santo Domingo de Los Tsáchilas", "provincia": "Santo Domingo de los Tsáchilas", "canton": "Santo Domingo" }, "geometry": { "type": "Point", "coordinates": [ -79.172416595574731, -0.25499453249097 ] } },
{ "type": "Feature", "properties": { "categoria": "Espacios Escénicos", "nombre": "Auditorio Municipal, la Concordia", "provincia": "Santo Domingo de los Tsáchilas", "canton": "La Concordia" }, "geometry": { "type": "Point", "coordinates": [ -79.395914799651536, 0.005037365603176 ] } },
{ "type": "Feature", "properties": { "categoria": "Espacios Escénicos", "nombre": "Auditorio GADP, Guayaquil", "provincia": "Guayas", "canton": "Guayaquil" }, "geometry": { "type": "Point", "coordinates": [ -79.880226792109042, -2.193369548580713 ] } },
{ "type": "Feature", "properties": { "categoria": "Espacios Escénicos", "nombre": "Auditorio Municipal, Milagro", "provincia": "Guayas", "canton": "Milagro" }, "geometry": { "type": "Point", "coordinates": [ -79.594549739743371, -2.128314594704332 ] } },
{ "type": "Feature", "properties": { "categoria": "Espacios Escénicos", "nombre": "Auditorio Municipal, Daule", "provincia": "Guayas", "canton": "Daule" }, "geometry": { "type": "Point", "coordinates": [ -79.982002828342019, -1.864665265405969 ] } },
{ "type": "Feature", "properties": { "categoria": "Espacios Escénicos", "nombre": "Auditorio Municipal, Babahoyo", "provincia": "Los Ríos", "canton": "Babahoyo" }, "geometry": { "type": "Point", "coordinates": [ -79.530972866858065, -1.79784249847784 ] } },
{ "type": "Feature", "properties": { "categoria": "Espacios Escénicos", "nombre": "Auditorio Teatro Casa de Arte, Buena Fe", "provincia": "Los Ríos", "canton": "Buena Fe" }, "geometry": { "type": "Point", "coordinates": [ -79.461051895857324, -1.4450067728566 ] } },
{ "type": "Feature", "properties": { "categoria": "Espacios Escénicos", "nombre": "Auditorio Municipal, Quevedo", "provincia": "Los Ríos", "canton": "Quevedo" }, "geometry": { "type": "Point", "coordinates": [ -79.465567774005649, -1.011421994111977 ] } },
{ "type": "Feature", "properties": { "categoria": "Espacios Escénicos", "nombre": "Auditorio Municipal, Ventanas", "provincia": "Los Ríos", "canton": "Ventanas" }, "geometry": { "type": "Point", "coordinates": [ -79.46198809077498, -1.442601712632728 ] } },
{ "type": "Feature", "properties": { "categoria": "Espacios Escénicos", "nombre": "Auditorio Municipal, Santa Elena", "provincia": "Santa Elena", "canton": "Santa Elena" }, "geometry": { "type": "Point", "coordinates": [ -80.857858021763192, -2.226371957104386 ] } },
{ "type": "Feature", "properties": { "categoria": "Espacios Escénicos", "nombre": "Auditorio GADP, Santa Elena", "provincia": "Santa Elena", "canton": "Santa Elena" }, "geometry": { "type": "Point", "coordinates": [ -80.859000119370506, -2.227132027906809 ] } },
{ "type": "Feature", "properties": { "categoria": "Espacios Escénicos", "nombre": "Sala Multiusos CCE, Santa Elena", "provincia": "Santa Elena", "canton": "Santa Elena" }, "geometry": { "type": "Point", "coordinates": [ -80.858883204284865, -2.227132016654385 ] } },
{ "type": "Feature", "properties": { "categoria": "Espacios Escénicos", "nombre": "Auditorio Municipal, Salinas", "provincia": "Santa Elena", "canton": "Salinas" }, "geometry": { "type": "Point", "coordinates": [ -80.954187512303093, -2.214996786355341 ] } },
{ "type": "Feature", "properties": { "categoria": "Espacios Escénicos", "nombre": "Sala Pequeña Municipal, la Libertad", "provincia": "Santa Elena", "canton": "La Libertad" }, "geometry": { "type": "Point", "coordinates": [ -80.920398550553728, -2.227987082417136 ] } },
{ "type": "Feature", "properties": { "categoria": "Espacios Escénicos", "nombre": "Teatro Municipal, Isla de San Cristóbal", "provincia": "Galápagos", "canton": "San Cristóbal" }, "geometry": { "type": "Point", "coordinates": [ -89.612128219170799, -0.9027359807035 ] } },
{ "type": "Feature", "properties": { "categoria": "Espacios Escénicos", "nombre": "Teatro Municipal, Isla Santa Cruz", "provincia": "Galápagos", "canton": "Santa Cruz" }, "geometry": { "type": "Point", "coordinates": [ -90.311958815840384, -0.745549121961964 ] } },
{ "type": "Feature", "properties": { "categoria": "Espacios Escénicos", "nombre": "Teatro Municipal, Guaranda", "provincia": "Bolívar", "canton": "Guaranda" }, "geometry": { "type": "Point", "coordinates": [ -79.001492809457943, -1.590815057730015 ] } },
{ "type": "Feature", "properties": { "categoria": "Espacios Escénicos", "nombre": "Auditorio GADP, Bolívar", "provincia": "Bolívar", "canton": "Guaranda" }, "geometry": { "type": "Point", "coordinates": [ -79.000046955184317, -1.590108394770342 ] } },
{ "type": "Feature", "properties": { "categoria": "Espacios Escénicos", "nombre": "Auditorio Museo Pumapungo MCYP, Cuenca", "provincia": "Azuay", "canton": "Cuenca" }, "geometry": { "type": "Point", "coordinates": [ -78.997229303255963, -2.905878895726909 ] } },
{ "type": "Feature", "properties": { "categoria": "Espacios Escénicos", "nombre": "Sala Pequeña Municipal, Cuenca", "provincia": "Azuay", "canton": "Cuenca" }, "geometry": { "type": "Point", "coordinates": [ -79.003458240501715, -2.897363771057405 ] } },
{ "type": "Feature", "properties": { "categoria": "Espacios Escénicos", "nombre": "Teatrino GADP, Cuenca", "provincia": "Azuay", "canton": "Cuenca" }, "geometry": { "type": "Point", "coordinates": [ -79.00863198788322, -2.900826819973956 ] } },
{ "type": "Feature", "properties": { "categoria": "Espacios Escénicos", "nombre": "Sala Pequeña Alianza Francesa, Cuenca", "provincia": "Azuay", "canton": "Cuenca" }, "geometry": { "type": "Point", "coordinates": [ -79.006027526557077, -2.903995808695764 ] } },
{ "type": "Feature", "properties": { "categoria": "Espacios Escénicos", "nombre": "Sala Pequeña Centro Cultural República Sur, Cuenca", "provincia": "Azuay", "canton": "Cuenca" }, "geometry": { "type": "Point", "coordinates": [ -79.001835752431006, -2.899530872530051 ] } },
{ "type": "Feature", "properties": { "categoria": "Espacios Escénicos", "nombre": "Teatro Sono, Cuenca", "provincia": "Azuay", "canton": "Cuenca" }, "geometry": { "type": "Point", "coordinates": [ -79.003122134712456, -2.89928903178457 ] } },
{ "type": "Feature", "properties": { "categoria": "Espacios Escénicos", "nombre": "Auditorio Universidad de Cuenca, Cuenca", "provincia": "Azuay", "canton": "Cuenca" }, "geometry": { "type": "Point", "coordinates": [ -79.010574877110841, -2.900568048673038 ] } },
{ "type": "Feature", "properties": { "categoria": "Espacios Escénicos", "nombre": "Auditorio Municipal, Gualaceo", "provincia": "Azuay", "canton": "Gualaceo" }, "geometry": { "type": "Point", "coordinates": [ -78.779462667206531, -2.889784771383512 ] } },
{ "type": "Feature", "properties": { "categoria": "Espacios Escénicos", "nombre": "Teatro Municipal, Azogues", "provincia": "Cañar", "canton": "Azogues" }, "geometry": { "type": "Point", "coordinates": [ -78.84677198965565, -2.73873656832808 ] } },
{ "type": "Feature", "properties": { "categoria": "Espacios Escénicos", "nombre": "Teatro CCE, Azogues", "provincia": "Cañar", "canton": "Azogues" }, "geometry": { "type": "Point", "coordinates": [ -78.84673732348719, -2.743039880864644 ] } },
{ "type": "Feature", "properties": { "categoria": "Espacios Escénicos", "nombre": "Auditorio Municipal, Cañar", "provincia": "Cañar", "canton": "Cañar" }, "geometry": { "type": "Point", "coordinates": [ -78.938442354306261, -2.559655880298876 ] } },
{ "type": "Feature", "properties": { "categoria": "Espacios Escénicos", "nombre": "Sala Multiusos Municipal, Loja", "provincia": "Loja", "canton": "Loja" }, "geometry": { "type": "Point", "coordinates": [ -79.202008113442574, -3.996003871084468 ] } },
{ "type": "Feature", "properties": { "categoria": "Espacios Escénicos", "nombre": "Auditorio GADP, Loja", "provincia": "Loja", "canton": "Loja" }, "geometry": { "type": "Point", "coordinates": [ -79.201557517599085, -3.996183729646098 ] } },
{ "type": "Feature", "properties": { "categoria": "Espacios Escénicos", "nombre": "Auditorio Municipal, Catamayo", "provincia": "Loja", "canton": "Catamayo" }, "geometry": { "type": "Point", "coordinates": [ -79.355516796058893, -3.986514892694899 ] } },
{ "type": "Feature", "properties": { "categoria": "Espacios Escénicos", "nombre": "Teatro Alianza Francesa, Guayaquil", "provincia": "Guayas", "canton": "Guayaquil" }, "geometry": { "type": "Point", "coordinates": [ -79.892719336345777, -2.188973746323881 ] } },
{ "type": "Feature", "properties": { "categoria": "Espacios Escénicos", "nombre": "Centro de Convenciones La Casa Morada, Guayaquil", "provincia": "Guayas", "canton": "Guayaquil" }, "geometry": { "type": "Point", "coordinates": [ -79.909089852963618, -2.168425310479959 ] } },
{ "type": "Feature", "properties": { "categoria": "Espacios Escénicos", "nombre": "Teatro Saraó, Guayaquil", "provincia": "Guayas", "canton": "Guayaquil" }, "geometry": { "type": "Point", "coordinates": [ -79.898212608423734, -2.177435754396682 ] } },
{ "type": "Feature", "properties": { "categoria": "Espacios Escénicos", "nombre": "Teatro Muégano, Guayaquil", "provincia": "Guayas", "canton": "Guayaquil" }, "geometry": { "type": "Point", "coordinates": [ -79.893961006063677, -2.212248707929227 ] } },
{ "type": "Feature", "properties": { "categoria": "Espacios Escénicos", "nombre": "Teatro ITAE, Guayaquil", "provincia": "Guayas", "canton": "Guayaquil" }, "geometry": { "type": "Point", "coordinates": [ -79.894753141019947, -2.211082433526442 ] } },
{ "type": "Feature", "properties": { "categoria": "Espacios Escénicos", "nombre": "Auditorio Municipal, Durán", "provincia": "Guayas", "canton": "Durán" }, "geometry": { "type": "Point", "coordinates": [ -79.852737703986534, -2.172281960916901 ] } },
{ "type": "Feature", "properties": { "categoria": "Espacios Escénicos", "nombre": "Teatro Sánchez Aguilar, Guayaquil", "provincia": "Guayas", "canton": "Guayaquil" }, "geometry": { "type": "Point", "coordinates": [ -79.867317163511871, -2.141981853825319 ] } },
{ "type": "Feature", "properties": { "categoria": "Museos", "nombre": "Museo Antropológico y de Arte Contemporáneo - MAAC", "provincia": "Guayas", "canton": "Guayaquil" }, "geometry": { "type": "Point", "coordinates": [ -79.875551462173476, -2.184848380329572 ] } },
{ "type": "Feature", "properties": { "categoria": "Museos", "nombre": "Museo y Centro Cultural Ibarra", "provincia": "Imbabura", "canton": "Ibarra" }, "geometry": { "type": "Point", "coordinates": [ -78.117818512445893, 0.349529899769516 ] } },
{ "type": "Feature", "properties": { "categoria": "Museos", "nombre": "Museo Centro Cultural Manta", "provincia": "Manabí", "canton": "Manta" }, "geometry": { "type": "Point", "coordinates": [ -80.730451941490188, -0.941858189095653 ] } },
{ "type": "Feature", "properties": { "categoria": "Museos", "nombre": "Museo Bahía de Caráquez", "provincia": "Manabí", "canton": "Sucre" }, "geometry": { "type": "Point", "coordinates": [ -80.42357463221397, -0.604601606510227 ] } },
{ "type": "Feature", "properties": { "categoria": "Museos", "nombre": "Museo Presley Norton", "provincia": "Guayas", "canton": "Guayaquil" }, "geometry": { "type": "Point", "coordinates": [ -79.895378354053946, -2.187582242160281 ] } },
{ "type": "Feature", "properties": { "categoria": "Museos", "nombre": "Museo de la Cultura Lojana", "provincia": "Loja", "canton": "Loja" }, "geometry": { "type": "Point", "coordinates": [ -79.201464056968703, -3.997217356729696 ] } },
{ "type": "Feature", "properties": { "categoria": "Museos", "nombre": "Museo Amantes de Sumpa", "provincia": "Santa Elena", "canton": "Santa Elena" }, "geometry": { "type": "Point", "coordinates": [ -80.867400169372573, -2.23348892960755 ] } },
{ "type": "Feature", "properties": { "categoria": "Museos", "nombre": "Museo y Parque Arqueológico Pumapungo", "provincia": "Azuay", "canton": "Cuenca" }, "geometry": { "type": "Point", "coordinates": [ -78.996827602386489, -2.906213930170224 ] } },
{ "type": "Feature", "properties": { "categoria": "Museos", "nombre": "Museo y Centro Cultural de Esmeraldas", "provincia": "Esmeraldas", "canton": "Esmeraldas" }, "geometry": { "type": "Point", "coordinates": [ -79.6516491, 0.9654821 ] } },
{ "type": "Feature", "properties": { "categoria": "Museos", "nombre": "Museo y Centro Cultural de Riobamba", "provincia": "Chimborazo", "canton": "Riobamba" }, "geometry": { "type": "Point", "coordinates": [ -78.652565917661107, -1.668677418335719 ] } },
{ "type": "Feature", "properties": { "categoria": "Museos", "nombre": "Museo Portoviejo Archivo Histórico", "provincia": "Manabí", "canton": "Portoviejo" }, "geometry": { "type": "Point", "coordinates": [ -80.450971126556411, -1.05726678773303 ] } },
{ "type": "Feature", "properties": { "categoria": "Museos", "nombre": "Complejo Fábrica Imbabura", "provincia": "Imbabura", "canton": "Antonio Ante" }, "geometry": { "type": "Point", "coordinates": [ -78.212710004635767, 0.321884846258275 ] } },
{ "type": "Feature", "properties": { "categoria": "Museos", "nombre": "Museo Nahim Isaías", "provincia": "Guayas", "canton": "Guayaquil" }, "geometry": { "type": "Point", "coordinates": [ -78.568801461833814, -1.261609160416503 ] } },
{ "type": "Feature", "properties": { "categoria": "Museos", "nombre": "Museo de la Cerámica Artesa", "provincia": "Azuay", "canton": "Cuenca" }, "geometry": { "type": "Point", "coordinates": [ -79.033686292106594, -2.909396291766187 ] } },
{ "type": "Feature", "properties": { "categoria": "Museos", "nombre": "Museo Municipal de Arte Moderno", "provincia": "Azuay", "canton": "Cuenca" }, "geometry": { "type": "Point", "coordinates": [ -79.011252522468581, -2.896238186387726 ] } },
{ "type": "Feature", "properties": { "categoria": "Museos", "nombre": "Museo Corporación Ciudad Alfaro", "provincia": "Manabí", "canton": "Montecristi" }, "geometry": { "type": "Point", "coordinates": [ -80.046386718750014, -0.819140184641513 ] } },
{ "type": "Feature", "properties": { "categoria": "Museos", "nombre": "Centro de Investigaciones y Museo Salango", "provincia": "Manabí", "canton": "Puerto López" }, "geometry": { "type": "Point", "coordinates": [ -80.84315294522834, -1.591053526276784 ] } },
{ "type": "Feature", "properties": { "categoria": "Museos", "nombre": "Museo Etnográfico Daniel Rodríguez Sacoto", "provincia": "Manabí", "canton": "Rocafuerte" }, "geometry": { "type": "Point", "coordinates": [ -80.4508492, -0.9236736 ] } },
{ "type": "Feature", "properties": { "categoria": "Bibliotecas", "nombre": "Biblioteca del Museo y Centro Cultural de Riobamba", "provincia": "Chimborazo", "canton": "Riobamba" }, "geometry": { "type": "Point", "coordinates": [ -78.652566075263991, -1.668655969763066 ] } },
{ "type": "Feature", "properties": { "categoria": "Bibliotecas", "nombre": "Biblioteca del Museo Centro Cultural Manta", "provincia": "Manabí", "canton": "Manta" }, "geometry": { "type": "Point", "coordinates": [ -80.7304184, -0.9417398 ] } },
{ "type": "Feature", "properties": { "categoria": "Bibliotecas", "nombre": "Biblioteca del Museo y Centro Cultural de Esmeraldas", "provincia": "Esmeraldas", "canton": "Esmeraldas" }, "geometry": { "type": "Point", "coordinates": [ -79.651887416896216, 0.965377903955273 ] } },
{ "type": "Feature", "properties": { "categoria": "Bibliotecas", "nombre": "Biblioteca del Museo y Centro Cultural Ibarra", "provincia": "Imbabura", "canton": "Ibarra" }, "geometry": { "type": "Point", "coordinates": [ -78.117831972337541, 0.349529899769516 ] } },
{ "type": "Feature", "properties": { "categoria": "Bibliotecas", "nombre": "Biblioteca del Museo de la Cultura Lojana", "provincia": "Loja", "canton": "Loja" }, "geometry": { "type": "Point", "coordinates": [ -79.201469421386733, -3.997158491671403 ] } },
{ "type": "Feature", "properties": { "categoria": "Bibliotecas", "nombre": "Biblioteca Viento y Letras", "provincia": "Cotopaxi", "canton": "Sigchos" }, "geometry": { "type": "Point", "coordinates": [ -78.914833679500219, -0.716410088380881 ] } },
{ "type": "Feature", "properties": { "categoria": "Bibliotecas", "nombre": "Biblioteca Comunitaria Casa Búho", "provincia": "Manabí", "canton": "Puerto López" }, "geometry": { "type": "Point", "coordinates": [ -80.772020979299342, -1.483600024396478 ] } },
{ "type": "Feature", "properties": { "categoria": "Bibliotecas", "nombre": "Limoteca", "provincia": "Loja", "canton": "Puyango" }, "geometry": { "type": "Point", "coordinates": [ -80.127963394301759, -3.986939988701951 ] } },
{ "type": "Feature", "properties": { "categoria": "Bibliotecas", "nombre": "Biblioteca del Museo Portoviejo", "provincia": "Manabí", "canton": "Portoviejo" }, "geometry": { "type": "Point", "coordinates": [ -80.45080474115187, -1.057170244646043 ] } },
{ "type": "Feature", "properties": { "categoria": "Bibliotecas", "nombre": "Biblioteca Infantil Manuela", "provincia": "Azuay", "canton": "Oña" }, "geometry": { "type": "Point", "coordinates": [ -79.138297264210252, -3.404786030360683 ] } },
{ "type": "Feature", "properties": { "categoria": "Bibliotecas", "nombre": "Sachateca Yachay Wasi", "provincia": "Pastaza", "canton": "Santa Clara" }, "geometry": { "type": "Point", "coordinates": [ -77.671939121675209, -1.250453851917051 ] } },
{ "type": "Feature", "properties": { "categoria": "Bibliotecas", "nombre": "Biblioteca del Museo Nuclear Corporación Ciudad Alfaro", "provincia": "Manabí", "canton": "Montecristi" }, "geometry": { "type": "Point", "coordinates": [ -80.648218954763109, -1.06698544308055 ] } },
{ "type": "Feature", "properties": { "categoria": "Bibliotecas", "nombre": "Biblioteca del Museo Bahía de Caráquez", "provincia": "Manabí", "canton": "Sucre" }, "geometry": { "type": "Point", "coordinates": [ -80.423600935166888, -0.6045479653163 ] } },
{ "type": "Feature", "properties": { "categoria": "Archivos Históricos", "nombre": "Archivo Histórico Municipal Juan Ordóñez", "provincia": "El Oro", "canton": "Zaruma" }, "geometry": { "type": "Point", "coordinates": [ -79.612904743832686, -3.691847634914958 ] } },
{ "type": "Feature", "properties": { "categoria": "Archivos Históricos", "nombre": "Archivo Histórico Nacional Zonal Alausí", "provincia": "Chimborazo", "canton": "Alausí" }, "geometry": { "type": "Point", "coordinates": [ -78.8495778, -2.2083905 ] } },
{ "type": "Feature", "properties": { "categoria": "Archivos Históricos", "nombre": "Archivo Histórico del Guayas", "provincia": "Guayas", "canton": "Guayaquil" }, "geometry": { "type": "Point", "coordinates": [ -79.892448517584057, -2.164950005071889 ] } },
{ "type": "Feature", "properties": { "categoria": "Archivos Históricos", "nombre": "Archivo Histórico Museo y Centro Cultural Ibarra", "provincia": "Imbabura", "canton": "Ibarra" }, "geometry": { "type": "Point", "coordinates": [ -78.11783411425931, 0.349559403519634 ] } },
{ "type": "Feature", "properties": { "categoria": "Archivos Históricos", "nombre": "Archivo Histórico del Museo y Centro Cultural de Esmeraldas", "provincia": "Esmeraldas", "canton": "Esmeraldas" }, "geometry": { "type": "Point", "coordinates": [ -79.651951789826867, 0.965334994702231 ] } },
{ "type": "Feature", "properties": { "categoria": "Archivos Históricos", "nombre": "Archivo Histórico y Fotográfico del Museo Pumapungo", "provincia": "Azuay", "canton": "Cuenca" }, "geometry": { "type": "Point", "coordinates": [ -78.996881223494015, -2.906192500095384 ] } },
{ "type": "Feature", "properties": { "categoria": "Archivos Históricos", "nombre": "Archivo Nacional de Historia de Cuenca - ANH/C", "provincia": "Azuay", "canton": "Cuenca" }, "geometry": { "type": "Point", "coordinates": [ -79.004235863685622, -2.899125910743282 ] } },
{ "type": "Feature", "properties": { "categoria": "Archivos Históricos", "nombre": "Museo Portoviejo y Archivo Histórico", "provincia": "Manabí", "canton": "Portoviejo" }, "geometry": { "type": "Point", "coordinates": [ -80.6649856, -1.0551296 ] } },
{ "type": "Feature", "properties": { "categoria": "Archivos Históricos", "nombre": "Fondo Documental Diocesano", "provincia": "Chimborazo", "canton": "Riobamba" }, "geometry": { "type": "Point", "coordinates": [ -78.569404506388508, -1.2786852706328 ] } },
{ "type": "Feature", "properties": { "categoria": "Archivos Históricos", "nombre": "Archivo Histórico de la Parroquia Eclesiástica Santa Clara", "provincia": "Pastaza", "canton": "Santa Clara" }, "geometry": { "type": "Point", "coordinates": [ -78.597310153695162, -1.253669052685815 ] } },
{ "type": "Feature", "properties": { "categoria": "Archivos Históricos", "nombre": "Archivo Histórico del Museo Municipal Remigio Crespo Toral", "provincia": "Azuay", "canton": "Cuenca" }, "geometry": { "type": "Point", "coordinates": [ -79.003983736038222, -2.90211542095677 ] } },
{ "type": "Feature", "properties": { "categoria": "Archivos Históricos", "nombre": "Archivo Histórico de la Revolución Liberal", "provincia": "Manabí", "canton": "Montecristi" }, "geometry": { "type": "Point", "coordinates": [ -80.648763348979344, -1.058060586334414 ] } },
{ "type": "Feature", "properties": { "categoria": "Archivos Históricos", "nombre": "Archivo Histórico Luis Cordero Crespo", "provincia": "Azuay", "canton": "Cuenca" }, "geometry": { "type": "Point", "coordinates": [ -79.002283224736829, -2.902688677388318 ] } },
{ "type": "Feature", "properties": { "categoria": "Archivos Históricos", "nombre": "Archivo Sonoro Radio Runacunapac Yachana", "provincia": "Bolívar", "canton": "Guaranda" }, "geometry": { "type": "Point", "coordinates": [ -78.959093950467377, -1.293187003736811 ] } }
]
}
