{"type":"FeatureCollection","features":[{"type":"Feature","properties":{"c":"cer","cat":"Cerro","n":"Atacazo"},"geometry":{"type":"Point","coordinates":[-78.6215109,-0.3535146]}},{"type":"Feature","properties":{"c":"cer","cat":"Cerro","n":"Guagua Pichincha"},"geometry":{"type":"Point","coordinates":[-78.6007202,-0.1745309]}},{"type":"Feature","properties":{"c":"cer","cat":"Cerro","n":"Ilaló"},"geometry":{"type":"Point","coordinates":[-78.4193935,-0.2628054]}},{"type":"Feature","properties":{"c":"cer","cat":"Cerro","n":"Volcán Pichincha"},"geometry":{"type":"Point","coordinates":[-78.6043435,-0.1657227]}},{"type":"Feature","properties":{"c":"cer","cat":"Cerro","n":"Rucu Pichincha"},"geometry":{"type":"Point","coordinates":[-78.566707,-0.1627104]}},{"type":"Feature","properties":{"c":"cer","cat":"Cerro","n":"Sincholagua"},"geometry":{"type":"Point","coordinates":[-78.4655803,0.0351004]}},{"type":"Feature","properties":{"c":"est","cat":"Estación","n":"Chimbacalle"},"geometry":{"type":"Point","coordinates":[-78.5152284,-0.2383216]}},{"type":"Feature","properties":{"c":"mir","cat":"Mirador","n":"Panecillo"},"geometry":{"type":"Point","coordinates":[-78.5180912,-0.2291308]}},{"type":"Feature","properties":{"c":"ter","cat":"Terminal","n":"Terminal Playón de la Marin"},"geometry":{"type":"Point","coordinates":[-78.5065521,-0.230118]}},{"type":"Feature","properties":{"c":"cer","cat":"Cerro","n":"Cruz Loma"},"geometry":{"type":"Point","coordinates":[-78.5350468,-0.1882745]}},{"type":"Feature","properties":{"c":"mus","cat":"Museo","n":"Museo del Banco Central"},"geometry":{"type":"Point","coordinates":[-78.4954683,-0.2096882]}},{"type":"Feature","properties":{"c":"mir","cat":"Mirador","n":"Mirador de San Juan"},"geometry":{"type":"Point","coordinates":[-78.5131361,-0.2138453]}},{"type":"Feature","properties":{"c":"mir","cat":"Mirador","n":"Catequilla"},"geometry":{"type":"Point","coordinates":[-78.4285234,0.0001642]}},{"type":"Feature","properties":{"c":"mir","cat":"Mirador","n":"Mirador de Guápulo"},"geometry":{"type":"Point","coordinates":[-78.4792551,-0.2014173]}},{"type":"Feature","properties":{"c":"uni","cat":"Universidad","n":"Uide"},"geometry":{"type":"Point","coordinates":[-78.4726468,-0.2468696]}},{"type":"Feature","properties":{"c":"ter","cat":"Terminal","n":"Terminal Terrestre Quitumbe"},"geometry":{"type":"Point","coordinates":[-78.5557889,-0.2955111]}},{"type":"Feature","properties":{"c":"mir","cat":"Mirador","n":"Mirador de Puengasi"},"geometry":{"type":"Point","coordinates":[-78.5045084,-0.2520043]}},{"type":"Feature","properties":{"c":"mus","cat":"Museo","n":"Centro de Arte Contemporáneo de Quito"},"geometry":{"type":"Point","coordinates":[-78.5069653,-0.2113842]}},{"type":"Feature","properties":{"c":"cc","cat":"Centro comercial","n":"Centro Comercial La Merced"},"geometry":{"type":"Point","coordinates":[-78.5128352,-0.2174388]}},{"type":"Feature","properties":{"c":"ter","cat":"Terminal","n":"Intercambiador Cumbaya"},"geometry":{"type":"Point","coordinates":[-78.4511572,-0.1820583]}},{"type":"Feature","properties":{"c":"ter","cat":"Terminal","n":"Estación de Buses Ecovia"},"geometry":{"type":"Point","coordinates":[-78.4727904,-0.1636131]}},{"type":"Feature","properties":{"c":"uni","cat":"Universidad","n":"Pontificia Universidad Católica del Ecuador"},"geometry":{"type":"Point","coordinates":[-78.4915942,-0.2098777]}},{"type":"Feature","properties":{"c":"ter","cat":"Terminal","n":"Terminal La Ofelia Metro Q"},"geometry":{"type":"Point","coordinates":[-78.4889564,-0.1099405]}},{"type":"Feature","properties":{"c":"mus","cat":"Museo","n":"Museo de Sitio Tulipe"},"geometry":{"type":"Point","coordinates":[-78.7367884,0.087278]}},{"type":"Feature","properties":{"c":"par","cat":"Parque","n":"Parque Metropolitano Chilibulo Huayrapungo"},"geometry":{"type":"Point","coordinates":[-78.5692357,-0.2472684]}},{"type":"Feature","properties":{"c":"par","cat":"Parque","n":"Entrada Parque Metropolitano Batan Alto"},"geometry":{"type":"Point","coordinates":[-78.466614,-0.167668]}},{"type":"Feature","properties":{"c":"mer","cat":"Mercado","n":"Mercado de Bellavista"},"geometry":{"type":"Point","coordinates":[-78.4713308,-0.1899181]}},{"type":"Feature","properties":{"c":"uni","cat":"Universidad","n":"ESCUELA POLITECNICA NACIONAL"},"geometry":{"type":"Point","coordinates":[-78.4886323,-0.2101692]}},{"type":"Feature","properties":{"c":"uni","cat":"Universidad","n":"Universidad Metropolitana"},"geometry":{"type":"Point","coordinates":[-78.4879227,-0.1702805]}},{"type":"Feature","properties":{"c":"uni","cat":"Universidad","n":"UNIVERSIDAD POLITECNICA SALESIANA"},"geometry":{"type":"Point","coordinates":[-78.4791216,-0.1432781]}},{"type":"Feature","properties":{"c":"mus","cat":"Museo","n":"Museo Interactivo de Ciencias"},"geometry":{"type":"Point","coordinates":[-78.5159924,-0.2360676]}},{"type":"Feature","properties":{"c":"ter","cat":"Terminal","n":"Estación Río Coca"},"geometry":{"type":"Point","coordinates":[-78.4709443,-0.1639117]}},{"type":"Feature","properties":{"c":"mir","cat":"Mirador","n":"Mirador Itchimbia"},"geometry":{"type":"Point","coordinates":[-78.5031984,-0.221527]}},{"type":"Feature","properties":{"c":"cc","cat":"Centro comercial","n":"Paseo San Francisco"},"geometry":{"type":"Point","coordinates":[-78.4368753,-0.1990092]}},{"type":"Feature","properties":{"c":"mer","cat":"Mercado","n":"Mercado Norte"},"geometry":{"type":"Point","coordinates":[-78.4994312,-0.1998831]}},{"type":"Feature","properties":{"c":"salud","cat":"Hospital","n":"Centro Médico Metropolitano"},"geometry":{"type":"Point","coordinates":[-78.5030546,-0.1838932]}},{"type":"Feature","properties":{"c":"par","cat":"Parque","n":"Parque \"El Tejar\""},"geometry":{"type":"Point","coordinates":[-78.5173709,-0.2114482]}},{"type":"Feature","properties":{"c":"cc","cat":"Centro comercial","n":"Mall Nogal Plaza"},"geometry":{"type":"Point","coordinates":[-78.451547,-0.1027917]}},{"type":"Feature","properties":{"c":"mir","cat":"Mirador","n":"Mirador Panecillo"},"geometry":{"type":"Point","coordinates":[-78.5184124,-0.2290049]}},{"type":"Feature","properties":{"c":"cc","cat":"Centro comercial","n":"Centro Comercial El Recreo"},"geometry":{"type":"Point","coordinates":[-78.5221892,-0.2528222]}},{"type":"Feature","properties":{"c":"cc","cat":"Centro comercial","n":"Condado Shopping"},"geometry":{"type":"Point","coordinates":[-78.4902116,-0.1031804]}},{"type":"Feature","properties":{"c":"uni","cat":"Universidad","n":"Instituto de Altos Estudios Nacionales"},"geometry":{"type":"Point","coordinates":[-78.4840654,-0.1718693]}},{"type":"Feature","properties":{"c":"salud","cat":"Hospital","n":"Emergencia Hospital Baca Ortiz"},"geometry":{"type":"Point","coordinates":[-78.4868083,-0.202711]}},{"type":"Feature","properties":{"c":"par","cat":"Parque","n":"Parque Metropolitano del Sur"},"geometry":{"type":"Point","coordinates":[-78.521931,-0.3414176]}},{"type":"Feature","properties":{"c":"estd","cat":"Estadio","n":"Estadio Rodrigo Paz Delgado"},"geometry":{"type":"Point","coordinates":[-78.4899309,-0.1076313]}},{"type":"Feature","properties":{"c":"salud","cat":"Hospital","n":"hospital de SOLCA"},"geometry":{"type":"Point","coordinates":[-78.4694666,-0.1362342]}},{"type":"Feature","properties":{"c":"cc","cat":"Centro comercial","n":"RíoCentro Shopping"},"geometry":{"type":"Point","coordinates":[-78.4763354,-0.166105]}},{"type":"Feature","properties":{"c":"par","cat":"Parque","n":"Parque de la Juventud"},"geometry":{"type":"Point","coordinates":[-78.4532355,-0.0975344]}},{"type":"Feature","properties":{"c":"mus","cat":"Museo","n":"Museo Aeronáutico y del Espacio FAE"},"geometry":{"type":"Point","coordinates":[-78.4930964,-0.1355708]}},{"type":"Feature","properties":{"c":"estd","cat":"Estadio","n":"Estadio de Aucas"},"geometry":{"type":"Point","coordinates":[-78.5476257,-0.2788631]}},{"type":"Feature","properties":{"c":"est","cat":"Estación","n":"El Labrador"},"geometry":{"type":"Point","coordinates":[-78.4863401,-0.1546296]}},{"type":"Feature","properties":{"c":"est","cat":"Estación","n":"Jipijapa"},"geometry":{"type":"Point","coordinates":[-78.483516,-0.1643034]}},{"type":"Feature","properties":{"c":"est","cat":"Estación","n":"Iñaquito"},"geometry":{"type":"Point","coordinates":[-78.4838488,-0.1767476]}},{"type":"Feature","properties":{"c":"est","cat":"Estación","n":"La Carolina"},"geometry":{"type":"Point","coordinates":[-78.4855008,-0.190368]}},{"type":"Feature","properties":{"c":"est","cat":"Estación","n":"Pradera"},"geometry":{"type":"Point","coordinates":[-78.492332,-0.1941359]}},{"type":"Feature","properties":{"c":"est","cat":"Estación","n":"Universidad Central"},"geometry":{"type":"Point","coordinates":[-78.5004296,-0.1987796]}},{"type":"Feature","properties":{"c":"est","cat":"Estación","n":"El Ejido"},"geometry":{"type":"Point","coordinates":[-78.497199,-0.2094018]}},{"type":"Feature","properties":{"c":"par","cat":"Parque","n":"La Alameda"},"geometry":{"type":"Point","coordinates":[-78.5024327,-0.2147312]}},{"type":"Feature","properties":{"c":"est","cat":"Estación","n":"San Francisco"},"geometry":{"type":"Point","coordinates":[-78.5143327,-0.2206027]}},{"type":"Feature","properties":{"c":"est","cat":"Estación","n":"La Magdalena"},"geometry":{"type":"Point","coordinates":[-78.5253637,-0.2379346]}},{"type":"Feature","properties":{"c":"est","cat":"Estación","n":"El Recreo"},"geometry":{"type":"Point","coordinates":[-78.5223337,-0.2544167]}},{"type":"Feature","properties":{"c":"est","cat":"Estación","n":"Cardenal de la Torre"},"geometry":{"type":"Point","coordinates":[-78.5332418,-0.2571188]}},{"type":"Feature","properties":{"c":"est","cat":"Estación","n":"Solanda"},"geometry":{"type":"Point","coordinates":[-78.5353106,-0.2659178]}},{"type":"Feature","properties":{"c":"mus","cat":"Museo","n":"Fundación Guasamin"},"geometry":{"type":"Point","coordinates":[-78.4547897,-0.0031024]}},{"type":"Feature","properties":{"c":"par","cat":"Parque","n":"Parque 6 de Junio"},"geometry":{"type":"Point","coordinates":[-78.4784651,-0.3126276]}},{"type":"Feature","properties":{"c":"par","cat":"Parque","n":"Parque Santa Clara"},"geometry":{"type":"Point","coordinates":[-78.5844458,-0.2914693]}},{"type":"Feature","properties":{"c":"mir","cat":"Mirador","n":"Mirador Oyacoto"},"geometry":{"type":"Point","coordinates":[-78.3828598,-0.1197082]}},{"type":"Feature","properties":{"c":"par","cat":"Parque","n":"Plaza ex aeropuerto"},"geometry":{"type":"Point","coordinates":[-78.4909377,-0.1455416]}},{"type":"Feature","properties":{"c":"salud","cat":"Hospital","n":"Hospital del Sur (Enrique Garcés)"},"geometry":{"type":"Point","coordinates":[-78.5411152,-0.2444605]}},{"type":"Feature","properties":{"c":"salud","cat":"Hospital","n":"Hospital General de las Fuerzas Armadas del Ecuador"},"geometry":{"type":"Point","coordinates":[-78.4936657,-0.2132225]}},{"type":"Feature","properties":{"c":"salud","cat":"Hospital","n":"Hospital Pablo Arturo Suarez"},"geometry":{"type":"Point","coordinates":[-78.497343,-0.1279086]}},{"type":"Feature","properties":{"c":"salud","cat":"Hospital","n":"Hospital Padre Carollo"},"geometry":{"type":"Point","coordinates":[-78.5503705,-0.2871725]}},{"type":"Feature","properties":{"c":"salud","cat":"Hospital","n":"Hospital de los Valles"},"geometry":{"type":"Point","coordinates":[-78.4244195,-0.2083764]}},{"type":"Feature","properties":{"c":"salud","cat":"Hospital","n":"Hospital Vozandes"},"geometry":{"type":"Point","coordinates":[-78.4894556,-0.1727992]}},{"type":"Feature","properties":{"c":"salud","cat":"Hospital","n":"Hospital Gineco Obstétrico de Nueva Aurora \"Luz Elena Arismendi\" (Maternidad del Sur)"},"geometry":{"type":"Point","coordinates":[-78.5546044,-0.3149668]}},{"type":"Feature","properties":{"c":"salud","cat":"Hospital","n":"Hospital Carlos Andrade Marin IESS"},"geometry":{"type":"Point","coordinates":[-78.5047977,-0.2051392]}},{"type":"Feature","properties":{"c":"salud","cat":"Hospital","n":"Hospital San Francisco de Quito IESS"},"geometry":{"type":"Point","coordinates":[-78.4768217,-0.0895486]}},{"type":"Feature","properties":{"c":"salud","cat":"Hospital","n":"Hospital Eugenio Espejo"},"geometry":{"type":"Point","coordinates":[-78.4984851,-0.2153009]}},{"type":"Feature","properties":{"c":"par","cat":"Parque","n":"Parque Metropolitano de La Armenia"},"geometry":{"type":"Point","coordinates":[-78.4688689,-0.270626]}},{"type":"Feature","properties":{"c":"par","cat":"Parque","n":"Parque Las Cuadras"},"geometry":{"type":"Point","coordinates":[-78.5477851,-0.2867412]}},{"type":"Feature","properties":{"c":"par","cat":"Parque","n":"Parque Bicentenario"},"geometry":{"type":"Point","coordinates":[-78.4879399,-0.1399162]}},{"type":"Feature","properties":{"c":"par","cat":"Parque","n":"Parque Itchimbía"},"geometry":{"type":"Point","coordinates":[-78.4995155,-0.2231251]}},{"type":"Feature","properties":{"c":"uni","cat":"Universidad","n":"Universidad Politécnica Salesiana de Quito (UPS-Q)"},"geometry":{"type":"Point","coordinates":[-78.4878935,-0.2081934]}},{"type":"Feature","properties":{"c":"uni","cat":"Universidad","n":"Universidad Politécnica Salesiana Campus Sur"},"geometry":{"type":"Point","coordinates":[-78.5504227,-0.2823927]}},{"type":"Feature","properties":{"c":"uni","cat":"Universidad","n":"Universidad Andina Simón Bolívar"},"geometry":{"type":"Point","coordinates":[-78.4873621,-0.2114559]}},{"type":"Feature","properties":{"c":"uni","cat":"Universidad","n":"Universidad Central del Ecuador"},"geometry":{"type":"Point","coordinates":[-78.5351973,-0.2651434]}},{"type":"Feature","properties":{"c":"uni","cat":"Universidad","n":"Universidad Tecnologica Indoamerica"},"geometry":{"type":"Point","coordinates":[-78.4984556,-0.1203336]}},{"type":"Feature","properties":{"c":"uni","cat":"Universidad","n":"Universidad San Francisco de Quito"},"geometry":{"type":"Point","coordinates":[-78.4357454,-0.1968613]}},{"type":"Feature","properties":{"c":"uni","cat":"Universidad","n":"Universidad Particular Internacional SEK"},"geometry":{"type":"Point","coordinates":[-78.4753512,-0.2001984]}},{"type":"Feature","properties":{"c":"uni","cat":"Universidad","n":"Universidad de los Hemisferios"},"geometry":{"type":"Point","coordinates":[-78.5039607,-0.1768552]}}]}