{"type":"FeatureCollection","features":[{"type":"Feature","properties":{"p":"TURUBAMBA","n":"Iglesia Católica San José de Caupicho","c":"igl","cat":"Iglesia"},"geometry":{"type":"Point","coordinates":[-78.5368341,-0.3287994]}},{"type":"Feature","properties":{"p":"SOLANDA","n":"Parroquia Inmaculada Concepción \"El Comercio\"","c":"igl","cat":"Iglesia"},"geometry":{"type":"Point","coordinates":[-78.5431882,-0.2740005]}},{"type":"Feature","properties":{"p":"LA ECUATORIANA","n":"Capilla Católica Niño Jesús - Los Cóndores","c":"igl","cat":"Iglesia"},"geometry":{"type":"Point","coordinates":[-78.5735079,-0.3112146]}},{"type":"Feature","properties":{"p":"MARISCAL SUCRE","n":"Radio Maria","c":"igl","cat":"Iglesia"},"geometry":{"type":"Point","coordinates":[-78.4874774,-0.2042945]}},{"type":"Feature","properties":{"p":"RUMIPAMBA","n":"Nuestra Señora de Agua Santa","c":"igl","cat":"Iglesia"},"geometry":{"type":"Point","coordinates":[-78.5030477,-0.1775548]}},{"type":"Feature","properties":{"p":"QUITUMBE","n":"Iglesia Católica Santa Narcisa de Jesús","c":"igl","cat":"Iglesia"},"geometry":{"type":"Point","coordinates":[-78.5332268,-0.3074542]}},{"type":"Feature","properties":{"p":"CALACALI","n":"ECUSTARS","c":"mer","cat":"Mercado"},"geometry":{"type":"Point","coordinates":[-78.4910242,0.0035696]}},{"type":"Feature","properties":{"p":"ITCHIMBIA","n":"Iglesia Católica San Vicente - La Vicentina","c":"igl","cat":"Iglesia"},"geometry":{"type":"Point","coordinates":[-78.4887639,-0.2164261]}},{"type":"Feature","properties":{"p":"GUAMANI","n":"Iglesia del Camposanto Metropolitano","c":"igl","cat":"Iglesia"},"geometry":{"type":"Point","coordinates":[-78.5692466,-0.3426912]}},{"type":"Feature","properties":{"p":"CHILLOGALLO","n":"Iglesia Católica San Luis de Chillogallo","c":"igl","cat":"Iglesia"},"geometry":{"type":"Point","coordinates":[-78.5680542,-0.2756672]}},{"type":"Feature","properties":{"p":"LA MENA","n":"Iglesia La Mena 2","c":"igl","cat":"Iglesia"},"geometry":{"type":"Point","coordinates":[-78.5527423,-0.2550259]}},{"type":"Feature","properties":{"p":"SAN BARTOLO","n":"Iglesia Adventista del Séptimo Día","c":"igl","cat":"Iglesia"},"geometry":{"type":"Point","coordinates":[-78.5355512,-0.2568354]}},{"type":"Feature","properties":{"p":"LA MAGDALENA","n":"Iglesia Luterana Palabra, verdad y vida","c":"igl","cat":"Iglesia"},"geometry":{"type":"Point","coordinates":[-78.5278267,-0.241507]}},{"type":"Feature","properties":{"p":"PONCEANO","n":"Iglesia Católica Santa Cruz de La Esperanza","c":"igl","cat":"Iglesia"},"geometry":{"type":"Point","coordinates":[-78.4890976,-0.1032992]}},{"type":"Feature","properties":{"p":"LA ARGELIA","n":"Iglesia Católica Santa María de la Argelia","c":"igl","cat":"Iglesia"},"geometry":{"type":"Point","coordinates":[-78.5232944,-0.2780311]}},{"type":"Feature","properties":{"p":"LA FERROVIARIA","n":"Iglesia Católica San Martín de Porres - Ferroviaria Alta","c":"igl","cat":"Iglesia"},"geometry":{"type":"Point","coordinates":[-78.5136606,-0.2601344]}},{"type":"Feature","properties":{"p":"CHILIBULO","n":"Iglesia Católica San José - Chilibulo","c":"igl","cat":"Iglesia"},"geometry":{"type":"Point","coordinates":[-78.5438766,-0.2401581]}},{"type":"Feature","properties":{"p":"KENNEDY","n":"Gnosis","c":"igl","cat":"Iglesia"},"geometry":{"type":"Point","coordinates":[-78.4803258,-0.1419189]}},{"type":"Feature","properties":{"p":"CHIMBACALLE","n":"Iglesia Católica Nuestra Señora de La Medalla Milagrosa - Quito","c":"igl","cat":"Iglesia"},"geometry":{"type":"Point","coordinates":[-78.5085012,-0.2417894]}},{"type":"Feature","properties":{"p":"PUENGASI","n":"Iglesia Católica de La Divina Misericordia","c":"igl","cat":"Iglesia"},"geometry":{"type":"Point","coordinates":[-78.4880125,-0.2388298]}},{"type":"Feature","properties":{"p":"LA CONCEPCION","n":"Capilla Católica de Adoración Perpetua","c":"igl","cat":"Iglesia"},"geometry":{"type":"Point","coordinates":[-78.4956573,-0.1394462]}},{"type":"Feature","properties":{"p":"COCHAPAMBA","n":"Centro de Adoracion Hosanna","c":"igl","cat":"Iglesia"},"geometry":{"type":"Point","coordinates":[-78.508952,-0.1407546]}},{"type":"Feature","properties":{"p":"LA LIBERTAD","n":"Iglesia Evangélica Apostólica del Nombre de Jesús - Dos Puentes","c":"igl","cat":"Iglesia"},"geometry":{"type":"Point","coordinates":[-78.5260504,-0.2318743]}},{"type":"Feature","properties":{"p":"COTOCOLLAO","n":"Capilla Católica Virgen del Rosario del Amparo","c":"igl","cat":"Iglesia"},"geometry":{"type":"Point","coordinates":[-78.498022,-0.1171737]}},{"type":"Feature","properties":{"p":"SAN ISIDRO DEL INCA","n":"Iglesia Católica San Miguel Arcángel de Amagasí del Inca","c":"igl","cat":"Iglesia"},"geometry":{"type":"Point","coordinates":[-78.459671,-0.1388299]}},{"type":"Feature","properties":{"p":"NONO","n":"Centro de Salud Nono","c":"salud","cat":"Hospital"},"geometry":{"type":"Point","coordinates":[-78.5733525,-0.0785989]}},{"type":"Feature","properties":{"p":"PACTO","n":"Iglesia  Católica Jesús Divino Pastor","c":"igl","cat":"Iglesia"},"geometry":{"type":"Point","coordinates":[-78.7680234,0.1407246]}},{"type":"Feature","properties":{"p":"GUALEA","n":"Iglesia Católica Inmaculada Concepción, Gualea","c":"igl","cat":"Iglesia"},"geometry":{"type":"Point","coordinates":[-78.7495097,0.1112815]}},{"type":"Feature","properties":{"p":"NANEGALITO","n":"Iglesia Católica Parroquial de Nanegalito","c":"igl","cat":"Iglesia"},"geometry":{"type":"Point","coordinates":[-78.6819305,0.0616166]}},{"type":"Feature","properties":{"p":"NANEGAL","n":"Plaza Central de Nanegal","c":"par","cat":"Parque"},"geometry":{"type":"Point","coordinates":[-78.6757233,0.1371677]}},{"type":"Feature","properties":{"p":"SAN JOSE DE MINAS","n":"Santuario Católico Nuestra Señora de La Caridad | San José de Minas","c":"igl","cat":"Iglesia"},"geometry":{"type":"Point","coordinates":[-78.4112126,0.1716164]}},{"type":"Feature","properties":{"p":"CENTRO HISTORICO","n":"Capilla del Hospicio de Lázaro","c":"igl","cat":"Iglesia"},"geometry":{"type":"Point","coordinates":[-78.5167973,-0.2246384]}},{"type":"Feature","properties":{"p":"BELISARIO QUEVEDO","n":"Iglesia Católica Cristo Resucitado - La Comuna","c":"igl","cat":"Iglesia"},"geometry":{"type":"Point","coordinates":[-78.5167288,-0.1892186]}},{"type":"Feature","properties":{"p":"SAN JUAN","n":"Iglesia Católica San Francisco de Cruz Loma","c":"igl","cat":"Iglesia"},"geometry":{"type":"Point","coordinates":[-78.5415756,-0.2022838]}},{"type":"Feature","properties":{"p":"CALDERON","n":"Iglesia de Marianitas","c":"igl","cat":"Iglesia"},"geometry":{"type":"Point","coordinates":[-78.4185561,-0.082506]}},{"type":"Feature","properties":{"p":"GUAYLLABAMBA","n":"Iglesia Evangélica Apostólica del Nombre de Jesús - Guayllabamba","c":"igl","cat":"Iglesia"},"geometry":{"type":"Point","coordinates":[-78.3569416,-0.0659825]}},{"type":"Feature","properties":{"p":"EL QUINCHE","n":"Iglesia Evangélica Apostólica del Nombre de Jesús - El Quinche","c":"igl","cat":"Iglesia"},"geometry":{"type":"Point","coordinates":[-78.2960478,-0.1125544]}},{"type":"Feature","properties":{"p":"CHECA","n":"GET","c":"igl","cat":"Iglesia"},"geometry":{"type":"Point","coordinates":[-78.315259,-0.1546739]}},{"type":"Feature","properties":{"p":"YARUQUI","n":"Iglesia Adventista Del Séptimo Día","c":"igl","cat":"Iglesia"},"geometry":{"type":"Point","coordinates":[-78.3318448,-0.1982948]}},{"type":"Feature","properties":{"p":"TABABELA","n":"Iglesia Católica Jesús de las Bienaventuranzas","c":"igl","cat":"Iglesia"},"geometry":{"type":"Point","coordinates":[-78.3453041,-0.18402]}},{"type":"Feature","properties":{"p":"PUEMBO","n":"Capilla Católica de Mangahuantag","c":"igl","cat":"Iglesia"},"geometry":{"type":"Point","coordinates":[-78.3705902,-0.1687417]}},{"type":"Feature","properties":{"p":"LLOA","n":"Iglesia de Urauco","c":"igl","cat":"Iglesia"},"geometry":{"type":"Point","coordinates":[-78.613568,-0.2385128]}},{"type":"Feature","properties":{"p":"LLANO CHICO","n":"Iglesia Evangélica Apostólica del Nombre de Jesús - Llano Chico","c":"igl","cat":"Iglesia"},"geometry":{"type":"Point","coordinates":[-78.4446801,-0.1287481]}},{"type":"Feature","properties":{"p":"ZAMBIZA","n":"La Doña","c":"par","cat":"Parque"},"geometry":{"type":"Point","coordinates":[-78.4407863,-0.1486188]}},{"type":"Feature","properties":{"p":"NAYON","n":"Capilla Católica San Vicente","c":"igl","cat":"Iglesia"},"geometry":{"type":"Point","coordinates":[-78.4465297,-0.1741324]}},{"type":"Feature","properties":{"p":"CUMBAYA","n":"casa de retiro Espiritual Salesiana","c":"igl","cat":"Iglesia"},"geometry":{"type":"Point","coordinates":[-78.4434636,-0.2104716]}},{"type":"Feature","properties":{"p":"TUMBACO","n":"Convento Madres de Calcuta","c":"igl","cat":"Iglesia"},"geometry":{"type":"Point","coordinates":[-78.4013573,-0.2161601]}},{"type":"Feature","properties":{"p":"GUANGOPOLO","n":"Iglesia Evangélica Apostólica del Nombre de Jesús - Guangopolo","c":"igl","cat":"Iglesia"},"geometry":{"type":"Point","coordinates":[-78.4515631,-0.2569025]}},{"type":"Feature","properties":{"p":"LA MERCED","n":"Avistamiento de aves","c":"par","cat":"Parque"},"geometry":{"type":"Point","coordinates":[-78.3966304,-0.2689146]}},{"type":"Feature","properties":{"p":"ALANGASI","n":"Iglesia de Betania","c":"igl","cat":"Iglesia"},"geometry":{"type":"Point","coordinates":[-78.4376247,-0.3085418]}},{"type":"Feature","properties":{"p":"PINTAG","n":"Salón del Reino de los Testigos de Jehová","c":"igl","cat":"Iglesia"},"geometry":{"type":"Point","coordinates":[-78.3733711,-0.3756685]}},{"type":"Feature","properties":{"p":"CONOCOTO","n":"Iglesia Cristiana Verbo Valle","c":"igl","cat":"Iglesia"},"geometry":{"type":"Point","coordinates":[-78.4809938,-0.2790645]}},{"type":"Feature","properties":{"p":"AMAGUAÑA","n":"Iglesia Católica Nuestra Señora de la Merced - Cuendina","c":"igl","cat":"Iglesia"},"geometry":{"type":"Point","coordinates":[-78.4808029,-0.3743642]}},{"type":"Feature","properties":{"p":"PIFO","n":"Iglesia Evangélica Apostólica del Nombre de Jesús - Pifo","c":"igl","cat":"Iglesia"},"geometry":{"type":"Point","coordinates":[-78.3425365,-0.2263227]}},{"type":"Feature","properties":{"p":"EL CONDADO","n":"Capilla Católica La Dolorosa","c":"igl","cat":"Iglesia"},"geometry":{"type":"Point","coordinates":[-78.5193865,-0.0988326]}},{"type":"Feature","properties":{"p":"POMASQUI","n":"Iglesia Católica Rosa Mística de Pomasqui","c":"igl","cat":"Iglesia"},"geometry":{"type":"Point","coordinates":[-78.4686447,-0.0526049]}},{"type":"Feature","properties":{"p":"JIPIJAPA","n":"Iglesia Católica Santa","c":"igl","cat":"Iglesia"},"geometry":{"type":"Point","coordinates":[-78.4613702,-0.1551753]}},{"type":"Feature","properties":{"p":"IÑAQUITO","n":"Capilla Católica de Adoración Perpetua - Ángeles Adoradores","c":"igl","cat":"Iglesia"},"geometry":{"type":"Point","coordinates":[-78.4753654,-0.1821184]}},{"type":"Feature","properties":{"p":"COMITE DEL PUEBLO","n":"Iglesia Católica San Francisco de Asís - La Bota","c":"igl","cat":"Iglesia"},"geometry":{"type":"Point","coordinates":[-78.4610367,-0.1157439]}},{"type":"Feature","properties":{"p":"PERUCHO","n":"Museo de Perucho","c":"mus","cat":"Museo"},"geometry":{"type":"Point","coordinates":[-78.423603,0.1093482]}},{"type":"Feature","properties":{"p":"CARCELEN","n":"Iglesia Católica Nuestra Señora Reina del Mundo - Carcelén","c":"igl","cat":"Iglesia"},"geometry":{"type":"Point","coordinates":[-78.4700605,-0.0877699]}},{"type":"Feature","properties":{"p":"ATAHUALPA","n":"Finca las Crucitas","c":"par","cat":"Parque"},"geometry":{"type":"Point","coordinates":[-78.3481922,0.1443267]}},{"type":"Feature","properties":{"p":"CHAVEZPAMBA","n":"Cerro Tabiro","c":"cer","cat":"Cerro"},"geometry":{"type":"Point","coordinates":[-78.366667,0.116667]}},{"type":"Feature","properties":{"p":"PUELLARO","n":"MIRADOR CERRO DE LA LUZ","c":"par","cat":"Parque"},"geometry":{"type":"Point","coordinates":[-78.4017436,0.0574481]}},{"type":"Feature","properties":{"p":"SAN ANTONIO","n":"Iglesia pentecostal","c":"igl","cat":"Iglesia"},"geometry":{"type":"Point","coordinates":[-78.4494183,-0.0031262]}}]}